{"type":"FeatureCollection","features":[{"type":"Feature","geometry":{"type":"Point","coordinates":[-1.04487,51.27513]},"properties":{"name":"Bolton Arms","cat":"pub","brand":"","cuisine":"","opening_hours":""}},{"type":"Feature","geometry":{"type":"Point","coordinates":[-1.05303,51.2733]},"properties":{"name":"Bartons Mill Pub & Restaurant","cat":"pub","brand":"","cuisine":"","opening_hours":""}},{"type":"Feature","geometry":{"type":"Point","coordinates":[-1.05093,51.27035]},"properties":{"name":"The Crown","cat":"pub","brand":"","cuisine":"","opening_hours":""}},{"type":"Feature","geometry":{"type":"Point","coordinates":[-1.04315,51.26565]},"properties":{"name":"Co-op Food","cat":"supermarket","brand":"Co-op Food","cuisine":"","opening_hours":"Mo-Su 07:00-22:00"}},{"type":"Feature","geometry":{"type":"Point","coordinates":[-1.04296,51.2659]},"properties":{"name":"Linden Dental Centre","cat":"dentist","brand":"","cuisine":"","opening_hours":""}},{"type":"Feature","geometry":{"type":"Point","coordinates":[-1.04645,51.27405]},"properties":{"name":"Old Basing Methodist Chapel","cat":"place_of_worship","brand":"","cuisine":"","opening_hours":""}},{"type":"Feature","geometry":{"type":"Point","coordinates":[-1.09815,51.25699]},"properties":{"name":"Wessex Christian Fellowship","cat":"place_of_worship","brand":"","cuisine":"","opening_hours":""}},{"type":"Feature","geometry":{"type":"Point","coordinates":[-1.09719,51.23927]},"properties":{"name":"The Jolly Farmer","cat":"pub","brand":"","cuisine":"","opening_hours":""}},{"type":"Feature","geometry":{"type":"Point","coordinates":[-1.08079,51.25636]},"properties":{"name":"Hackwood Stores","cat":"convenience","brand":"","cuisine":"","opening_hours":""}},{"type":"Feature","geometry":{"type":"Point","coordinates":[-1.09374,51.25296]},"properties":{"name":"Londis","cat":"convenience","brand":"Londis","cuisine":"","opening_hours":""}},{"type":"Feature","geometry":{"type":"Point","coordinates":[-1.11431,51.2454]},"properties":{"name":"Brighton Hill Pharmacy","cat":"pharmacy","brand":"","cuisine":"","opening_hours":"Mo-Fr 09:00-18:00; Sa 09:00-17:00"}},{"type":"Feature","geometry":{"type":"Point","coordinates":[-1.04961,51.27096]},"properties":{"name":"The Street Bakeshop","cat":"bakery","brand":"","cuisine":"","opening_hours":""}},{"type":"Feature","geometry":{"type":"Point","coordinates":[-1.08874,51.26016]},"properties":{"name":"Bounty Inn","cat":"pub","brand":"","cuisine":"","opening_hours":""}},{"type":"Feature","geometry":{"type":"Point","coordinates":[-1.08699,51.25915]},"properties":{"name":"Basingstoke Quaker Meeting House","cat":"place_of_worship","brand":"","cuisine":"","opening_hours":""}},{"type":"Feature","geometry":{"type":"Point","coordinates":[-1.03971,51.26841]},"properties":{"name":"Old Basing News","cat":"convenience","brand":"","cuisine":"","opening_hours":""}},{"type":"Feature","geometry":{"type":"Point","coordinates":[-1.03978,51.26843]},"properties":{"name":"Basing Chinese Takeaway","cat":"restaurant","brand":"","cuisine":"","opening_hours":""}},{"type":"Feature","geometry":{"type":"Point","coordinates":[-1.10983,51.24183]},"properties":{"name":"Brighton Hill Scout Group","cat":"community_centre","brand":"","cuisine":"","opening_hours":""}},{"type":"Feature","geometry":{"type":"Point","coordinates":[-1.12123,51.24492]},"properties":{"name":"Basingstoke Baptist Church","cat":"place_of_worship","brand":"","cuisine":"","opening_hours":""}},{"type":"Feature","geometry":{"type":"Point","coordinates":[-1.12036,51.24449]},"properties":{"name":"Brighton Hill Community Association","cat":"community_centre","brand":"","cuisine":"","opening_hours":""}},{"type":"Feature","geometry":{"type":"Point","coordinates":[-1.11905,51.24431]},"properties":{"name":"Brighton Hill Pre-School","cat":"school","brand":"","cuisine":"","opening_hours":""}},{"type":"Feature","geometry":{"type":"Point","coordinates":[-1.12232,51.24318]},"properties":{"name":"One Stop","cat":"convenience","brand":"One Stop","cuisine":"","opening_hours":""}},{"type":"Feature","geometry":{"type":"Point","coordinates":[-1.09655,51.25811]},"properties":{"name":"\"Jay Bee's\"Mace Convenience Store","cat":"post_office","brand":"","cuisine":"","opening_hours":""}},{"type":"Feature","geometry":{"type":"Point","coordinates":[-1.09672,51.25775]},"properties":{"name":"Salvation Army - Basingstoke","cat":"place_of_worship","brand":"","cuisine":"","opening_hours":""}},{"type":"Feature","geometry":{"type":"Point","coordinates":[-1.09677,51.25853]},"properties":{"name":"King of Wessex","cat":"pub","brand":"","cuisine":"","opening_hours":""}},{"type":"Feature","geometry":{"type":"Point","coordinates":[-1.09644,51.25799]},"properties":{"name":"S R Pharmacy","cat":"pharmacy","brand":"","cuisine":"","opening_hours":""}},{"type":"Feature","geometry":{"type":"Point","coordinates":[-1.12256,51.25747]},"properties":{"name":"Saint Josephs Catholic Church","cat":"place_of_worship","brand":"","cuisine":"","opening_hours":""}},{"type":"Feature","geometry":{"type":"Point","coordinates":[-1.11046,51.25709]},"properties":{"name":"The Co-operative Food","cat":"convenience","brand":"The Co-operative Food","cuisine":"","opening_hours":"Mo-Su 06:30-22:00"}},{"type":"Feature","geometry":{"type":"Point","coordinates":[-1.11516,51.25366]},"properties":{"name":"Aldworth Science College","cat":"school","brand":"","cuisine":"","opening_hours":""}},{"type":"Feature","geometry":{"type":"Point","coordinates":[-1.11405,51.25008]},"properties":{"name":"Shell","cat":"fuel","brand":"Shell","cuisine":"","opening_hours":""}},{"type":"Feature","geometry":{"type":"Point","coordinates":[-1.118,51.25029]},"properties":{"name":"Morrisons Daily","cat":"convenience","brand":"Morrisons Daily","cuisine":"","opening_hours":""}},{"type":"Feature","geometry":{"type":"Point","coordinates":[-1.1253,51.25455]},"properties":{"name":"Park View Infant School","cat":"school","brand":"","cuisine":"","opening_hours":""}},{"type":"Feature","geometry":{"type":"Point","coordinates":[-1.09299,51.26583]},"properties":{"name":"Essex Road Gospel Hall","cat":"place_of_worship","brand":"","cuisine":"","opening_hours":""}},{"type":"Feature","geometry":{"type":"Point","coordinates":[-1.09222,51.26403]},"properties":{"name":"Hare & Hounds","cat":"pub","brand":"","cuisine":"","opening_hours":""}},{"type":"Feature","geometry":{"type":"Point","coordinates":[-1.08565,51.26251]},"properties":{"name":"London Street United Reformed Church","cat":"place_of_worship","brand":"","cuisine":"","opening_hours":""}},{"type":"Feature","geometry":{"type":"Point","coordinates":[-1.1021,51.27923]},"properties":{"name":"Apollo Hotel","cat":"hotel","brand":"","cuisine":"","opening_hours":""}},{"type":"Feature","geometry":{"type":"Point","coordinates":[-1.08097,51.25342]},"properties":{"name":"Texaco","cat":"fuel","brand":"Texaco","cuisine":"","opening_hours":""}},{"type":"Feature","geometry":{"type":"Point","coordinates":[-1.08088,51.25331]},"properties":{"name":"Asda Express","cat":"convenience","brand":"Asda Express","cuisine":"","opening_hours":""}},{"type":"Feature","geometry":{"type":"Point","coordinates":[-1.06554,51.26714]},"properties":{"name":"Basing Fen","cat":"attraction","brand":"","cuisine":"","opening_hours":""}},{"type":"Feature","geometry":{"type":"Point","coordinates":[-1.07507,51.25563]},"properties":{"name":"Black Dam Stores","cat":"convenience","brand":"","cuisine":"","opening_hours":""}},{"type":"Feature","geometry":{"type":"Point","coordinates":[-1.07178,51.25854]},"properties":{"name":"The Rucstall","cat":"pub","brand":"","cuisine":"","opening_hours":""}},{"type":"Feature","geometry":{"type":"Point","coordinates":[-1.09269,51.26785]},"properties":{"name":"Pyramids & Balls","cat":"artwork","brand":"","cuisine":"","opening_hours":""}},{"type":"Feature","geometry":{"type":"Point","coordinates":[-1.08682,51.26789]},"properties":{"name":"L'Arc","cat":"artwork","brand":"","cuisine":"","opening_hours":""}},{"type":"Feature","geometry":{"type":"Point","coordinates":[-1.14111,51.23547]},"properties":{"name":"Sculpture","cat":"artwork","brand":"","cuisine":"","opening_hours":""}},{"type":"Feature","geometry":{"type":"Point","coordinates":[-1.08781,51.26802]},"properties":{"name":"Sailing By Stars","cat":"artwork","brand":"","cuisine":"","opening_hours":""}},{"type":"Feature","geometry":{"type":"Point","coordinates":[-1.09723,51.27644]},"properties":{"name":"The Soldiers Return","cat":"pub","brand":"","cuisine":"","opening_hours":""}},{"type":"Feature","geometry":{"type":"Point","coordinates":[-1.09241,51.27022]},"properties":{"name":"Church Of The Holy Ghost","cat":"place_of_worship","brand":"","cuisine":"","opening_hours":""}},{"type":"Feature","geometry":{"type":"Point","coordinates":[-1.08882,51.27036]},"properties":{"name":"Premier","cat":"convenience","brand":"Premier","cuisine":"","opening_hours":""}},{"type":"Feature","geometry":{"type":"Point","coordinates":[-1.07976,51.2764]},"properties":{"name":"Oakridge Church","cat":"place_of_worship","brand":"","cuisine":"","opening_hours":""}},{"type":"Feature","geometry":{"type":"Point","coordinates":[-1.07906,51.27087]},"properties":{"name":"Norn Hill Store","cat":"convenience","brand":"","cuisine":"","opening_hours":""}},{"type":"Feature","geometry":{"type":"Point","coordinates":[-1.08833,51.26375]},"properties":{"name":"Blue Coat Boy","cat":"artwork","brand":"","cuisine":"","opening_hours":""}},{"type":"Feature","geometry":{"type":"Point","coordinates":[-1.08832,51.26373]},"properties":{"name":"Carved Panel","cat":"artwork","brand":"","cuisine":"","opening_hours":""}},{"type":"Feature","geometry":{"type":"Point","coordinates":[-1.13828,51.25016]},"properties":{"name":"Kempshott Methodist Church","cat":"place_of_worship","brand":"","cuisine":"","opening_hours":""}},{"type":"Feature","geometry":{"type":"Point","coordinates":[-1.08649,51.26342]},"properties":{"name":"The Church Stone","cat":"artwork","brand":"","cuisine":"","opening_hours":""}},{"type":"Feature","geometry":{"type":"Point","coordinates":[-1.08564,51.26241]},"properties":{"name":"The Family","cat":"artwork","brand":"","cuisine":"","opening_hours":""}},{"type":"Feature","geometry":{"type":"Point","coordinates":[-1.08431,51.26235]},"properties":{"name":"Triumphal Gates","cat":"artwork","brand":"","cuisine":"","opening_hours":""}},{"type":"Feature","geometry":{"type":"Point","coordinates":[-1.11336,51.25623]},"properties":{"name":"Saint Andrew's Trinity Methodist Church","cat":"place_of_worship","brand":"","cuisine":"","opening_hours":""}},{"type":"Feature","geometry":{"type":"Point","coordinates":[-1.11962,51.25983]},"properties":{"name":"Bhuller Stores","cat":"convenience","brand":"","cuisine":"","opening_hours":""}},{"type":"Feature","geometry":{"type":"Point","coordinates":[-1.08885,51.278]},"properties":{"name":"Stratfield Road Dental Practice","cat":"dentist","brand":"","cuisine":"","opening_hours":""}},{"type":"Feature","geometry":{"type":"Point","coordinates":[-1.12548,51.25406]},"properties":{"name":"Park View Junior School","cat":"school","brand":"","cuisine":"","opening_hours":""}},{"type":"Feature","geometry":{"type":"Point","coordinates":[-1.12978,51.25004]},"properties":{"name":"Basingstoke Rugby Football Club","cat":"sports_centre","brand":"","cuisine":"","opening_hours":""}},{"type":"Feature","geometry":{"type":"Point","coordinates":[-1.1348,51.25189]},"properties":{"name":"The Spice Restaurant","cat":"restaurant","brand":"","cuisine":"indian","opening_hours":""}},{"type":"Feature","geometry":{"type":"Point","coordinates":[-1.11451,51.29635]},"properties":{"name":"The Gospel Hall","cat":"place_of_worship","brand":"","cuisine":"","opening_hours":""}},{"type":"Feature","geometry":{"type":"Point","coordinates":[-1.11636,51.28909]},"properties":{"name":"Gales Garage","cat":"fuel","brand":"","cuisine":"","opening_hours":""}},{"type":"Feature","geometry":{"type":"Point","coordinates":[-1.103,51.26169]},"properties":{"name":"Wrought Iron Gates","cat":"artwork","brand":"","cuisine":"","opening_hours":""}},{"type":"Feature","geometry":{"type":"Point","coordinates":[-1.08703,51.265]},"properties":{"name":"Lloyds Bank","cat":"bank","brand":"Lloyds Bank","cuisine":"","opening_hours":""}},{"type":"Feature","geometry":{"type":"Point","coordinates":[-1.11891,51.2635]},"properties":{"name":"Basingstoke Fire Station","cat":"fire_station","brand":"","cuisine":"","opening_hours":""}},{"type":"Feature","geometry":{"type":"Point","coordinates":[-1.12441,51.26826]},"properties":{"name":"Winklebury Dental Practice","cat":"dentist","brand":"","cuisine":"","opening_hours":""}},{"type":"Feature","geometry":{"type":"Point","coordinates":[-1.13503,51.26164]},"properties":{"name":"Stop & Shop","cat":"convenience","brand":"","cuisine":"","opening_hours":""}},{"type":"Feature","geometry":{"type":"Point","coordinates":[-1.13343,51.25611]},"properties":{"name":"The Buckskin","cat":"pub","brand":"","cuisine":"","opening_hours":""}},{"type":"Feature","geometry":{"type":"Point","coordinates":[-1.13327,51.25604]},"properties":{"name":"Welcome","cat":"convenience","brand":"Welcome","cuisine":"","opening_hours":""}},{"type":"Feature","geometry":{"type":"Point","coordinates":[-1.14143,51.22944]},"properties":{"name":"Beggarwood Dental Surgery","cat":"dentist","brand":"","cuisine":"","opening_hours":"Mo-Fr 08:30-17:30"}},{"type":"Feature","geometry":{"type":"Point","coordinates":[-1.14175,51.22955]},"properties":{"name":"Boots","cat":"pharmacy","brand":"Boots","cuisine":"","opening_hours":""}},{"type":"Feature","geometry":{"type":"Point","coordinates":[-1.05802,51.27639]},"properties":{"name":"Cromwell Inn","cat":"pub","brand":"","cuisine":"","opening_hours":""}},{"type":"Feature","geometry":{"type":"Point","coordinates":[-1.1025,51.27374]},"properties":{"name":"Centaur News","cat":"convenience","brand":"","cuisine":"","opening_hours":""}},{"type":"Feature","geometry":{"type":"Point","coordinates":[-1.11375,51.27161]},"properties":{"name":"The Winkle","cat":"pub","brand":"","cuisine":"","opening_hours":"Mo-Fr 15:00-20:00; Sa,Su 14:00-20:00"}},{"type":"Feature","geometry":{"type":"Point","coordinates":[-1.1167,51.27463]},"properties":{"name":"Wellington Social Club","cat":"pub","brand":"","cuisine":"","opening_hours":""}},{"type":"Feature","geometry":{"type":"Point","coordinates":[-1.11409,51.26921]},"properties":{"name":"Kingdom Hall Of Jehovah's Witnesses","cat":"place_of_worship","brand":"","cuisine":"","opening_hours":""}},{"type":"Feature","geometry":{"type":"Point","coordinates":[-1.11896,51.27965]},"properties":{"name":"Visitor Parkng","cat":"parking","brand":"","cuisine":"","opening_hours":""}},{"type":"Feature","geometry":{"type":"Point","coordinates":[-1.11043,51.25699]},"properties":{"name":"Herbies Pizza","cat":"fast_food","brand":"Herbies Pizza","cuisine":"pizza","opening_hours":""}},{"type":"Feature","geometry":{"type":"Point","coordinates":[-1.08823,51.26863]},"properties":{"name":"Cafe destino","cat":"cafe","brand":"","cuisine":"","opening_hours":""}},{"type":"Feature","geometry":{"type":"Point","coordinates":[-1.08759,51.26834]},"properties":{"name":"AM & PM Cafe Bar","cat":"cafe","brand":"","cuisine":"","opening_hours":""}},{"type":"Feature","geometry":{"type":"Point","coordinates":[-1.10099,51.26287]},"properties":{"name":"GP vets","cat":"veterinary","brand":"","cuisine":"","opening_hours":""}},{"type":"Feature","geometry":{"type":"Point","coordinates":[-1.08772,51.26919]},"properties":{"name":"Basingstoke Railway Social Club","cat":"pub","brand":"","cuisine":"","opening_hours":""}},{"type":"Feature","geometry":{"type":"Point","coordinates":[-1.09027,51.28095]},"properties":{"name":"Fast Fare","cat":"convenience","brand":"Premier","cuisine":"","opening_hours":""}},{"type":"Feature","geometry":{"type":"Point","coordinates":[-1.09054,51.28092]},"properties":{"name":"Fast Fare Pharmacy","cat":"pharmacy","brand":"","cuisine":"","opening_hours":""}},{"type":"Feature","geometry":{"type":"Point","coordinates":[-1.06248,51.26415]},"properties":{"name":"Basing Lime Pits","cat":"attraction","brand":"","cuisine":"","opening_hours":""}},{"type":"Feature","geometry":{"type":"Point","coordinates":[-1.04916,51.28011]},"properties":{"name":"The Barn Animal Hospital","cat":"veterinary","brand":"","cuisine":"","opening_hours":""}},{"type":"Feature","geometry":{"type":"Point","coordinates":[-1.10605,51.29428]},"properties":{"name":"Sherborne St John Social Club","cat":"pub","brand":"","cuisine":"","opening_hours":""}},{"type":"Feature","geometry":{"type":"Point","coordinates":[-1.09106,51.28385]},"properties":{"name":"St Bede's Church","cat":"place_of_worship","brand":"","cuisine":"","opening_hours":""}},{"type":"Feature","geometry":{"type":"Point","coordinates":[-1.07108,51.28526]},"properties":{"name":"The Church of Jesus Christ of Latter-day Saints","cat":"place_of_worship","brand":"","cuisine":"","opening_hours":""}},{"type":"Feature","geometry":{"type":"Point","coordinates":[-1.05996,51.28461]},"properties":{"name":"Still Life","cat":"artwork","brand":"","cuisine":"","opening_hours":""}},{"type":"Feature","geometry":{"type":"Point","coordinates":[-1.05772,51.28629]},"properties":{"name":"Working Wood","cat":"artwork","brand":"","cuisine":"","opening_hours":""}},{"type":"Feature","geometry":{"type":"Point","coordinates":[-1.0598,51.28444]},"properties":{"name":"Clock Tower","cat":"tower","brand":"","cuisine":"","opening_hours":""}},{"type":"Feature","geometry":{"type":"Point","coordinates":[-1.05437,51.2825]},"properties":{"name":"Three Geese","cat":"artwork","brand":"","cuisine":"","opening_hours":""}},{"type":"Feature","geometry":{"type":"Point","coordinates":[-1.05382,51.28663]},"properties":{"name":"Nuthatches","cat":"artwork","brand":"","cuisine":"","opening_hours":""}},{"type":"Feature","geometry":{"type":"Point","coordinates":[-1.05469,51.28652]},"properties":{"name":"Stag Beetle","cat":"artwork","brand":"","cuisine":"","opening_hours":""}},{"type":"Feature","geometry":{"type":"Point","coordinates":[-1.0559,51.28672]},"properties":{"name":"Sycamore Seeds","cat":"artwork","brand":"","cuisine":"","opening_hours":""}},{"type":"Feature","geometry":{"type":"Point","coordinates":[-1.05655,51.28651]},"properties":{"name":"Centipede","cat":"artwork","brand":"","cuisine":"","opening_hours":""}},{"type":"Feature","geometry":{"type":"Point","coordinates":[-1.05671,51.28668]},"properties":{"name":"Willow Totems","cat":"artwork","brand":"","cuisine":"","opening_hours":""}},{"type":"Feature","geometry":{"type":"Point","coordinates":[-1.05694,51.28649]},"properties":{"name":"Harts Tongue Fern","cat":"artwork","brand":"","cuisine":"","opening_hours":""}},{"type":"Feature","geometry":{"type":"Point","coordinates":[-1.05745,51.28639]},"properties":{"name":"Cuckoo Pint Flower","cat":"artwork","brand":"","cuisine":"","opening_hours":""}},{"type":"Feature","geometry":{"type":"Point","coordinates":[-1.05581,51.28675]},"properties":{"name":"Moss Spore Capsules","cat":"artwork","brand":"","cuisine":"","opening_hours":""}},{"type":"Feature","geometry":{"type":"Point","coordinates":[-1.06664,51.27613]},"properties":{"name":"Standing Stones","cat":"artwork","brand":"","cuisine":"","opening_hours":""}},{"type":"Feature","geometry":{"type":"Point","coordinates":[-1.05641,51.28961]},"properties":{"name":"Chineham Dental Practice","cat":"dentist","brand":"","cuisine":"","opening_hours":""}},{"type":"Feature","geometry":{"type":"Point","coordinates":[-1.05209,51.2946]},"properties":{"name":"Guinea Court Dental Surgery","cat":"dentist","brand":"","cuisine":"","opening_hours":""}},{"type":"Feature","geometry":{"type":"Point","coordinates":[-1.05655,51.29763]},"properties":{"name":"The Chineham Arms","cat":"pub","brand":"Fuller's","cuisine":"","opening_hours":""}},{"type":"Feature","geometry":{"type":"Point","coordinates":[-1.06744,51.28608]},"properties":{"name":"Chineham Indian Cuisine","cat":"restaurant","brand":"","cuisine":"indian","opening_hours":"Mo-Su 12:00-14:30, 17:30-23:30"}},{"type":"Feature","geometry":{"type":"Point","coordinates":[-1.05805,51.28771]},"properties":{"name":"Totem Pole","cat":"artwork","brand":"","cuisine":"","opening_hours":""}},{"type":"Feature","geometry":{"type":"Point","coordinates":[-1.08473,51.26246]},"properties":{"name":"New Cash And Carry","cat":"supermarket","brand":"","cuisine":"","opening_hours":""}},{"type":"Feature","geometry":{"type":"Point","coordinates":[-1.08508,51.26232]},"properties":{"name":"The Lime Leaf","cat":"restaurant","brand":"","cuisine":"","opening_hours":""}},{"type":"Feature","geometry":{"type":"Point","coordinates":[-1.08516,51.26232]},"properties":{"name":"Kings Pizza And Kebab","cat":"fast_food","brand":"","cuisine":"","opening_hours":""}},{"type":"Feature","geometry":{"type":"Point","coordinates":[-1.08533,51.26249]},"properties":{"name":"The Royal Exchange","cat":"bar","brand":"","cuisine":"","opening_hours":""}},{"type":"Feature","geometry":{"type":"Point","coordinates":[-1.08541,51.26235]},"properties":{"name":"Tuli","cat":"restaurant","brand":"","cuisine":"indian","opening_hours":""}},{"type":"Feature","geometry":{"type":"Point","coordinates":[-1.0855,51.26235]},"properties":{"name":"Galletto","cat":"restaurant","brand":"","cuisine":"italian","opening_hours":""}},{"type":"Feature","geometry":{"type":"Point","coordinates":[-1.08571,51.26235]},"properties":{"name":"Hee's Express","cat":"fast_food","brand":"","cuisine":"chinese","opening_hours":""}},{"type":"Feature","geometry":{"type":"Point","coordinates":[-1.0861,51.26235]},"properties":{"name":"The Tea Bar","cat":"bar","brand":"","cuisine":"","opening_hours":""}},{"type":"Feature","geometry":{"type":"Point","coordinates":[-1.08786,51.26235]},"properties":{"name":"The Maidenhead Inn","cat":"pub","brand":"Wetherspoon","cuisine":"","opening_hours":""}},{"type":"Feature","geometry":{"type":"Point","coordinates":[-1.08643,51.26249]},"properties":{"name":"Foyles","cat":"newsagent","brand":"","cuisine":"","opening_hours":""}},{"type":"Feature","geometry":{"type":"Point","coordinates":[-1.085,51.26247]},"properties":{"name":"Red Lion","cat":"hotel","brand":"","cuisine":"","opening_hours":""}},{"type":"Feature","geometry":{"type":"Point","coordinates":[-1.08506,51.26247]},"properties":{"name":"Squire","cat":"bar","brand":"","cuisine":"","opening_hours":""}},{"type":"Feature","geometry":{"type":"Point","coordinates":[-1.08648,51.26238]},"properties":{"name":"NatWest","cat":"atm","brand":"NatWest","cuisine":"","opening_hours":""}},{"type":"Feature","geometry":{"type":"Point","coordinates":[-1.08671,51.26304]},"properties":{"name":"Laarsons","cat":"pub","brand":"","cuisine":"","opening_hours":""}},{"type":"Feature","geometry":{"type":"Point","coordinates":[-1.08671,51.26277]},"properties":{"name":"Dayers Fine Food","cat":"cafe","brand":"","cuisine":"","opening_hours":""}},{"type":"Feature","geometry":{"type":"Point","coordinates":[-1.0862,51.26392]},"properties":{"name":"Halifax","cat":"bank","brand":"Halifax","cuisine":"","opening_hours":"Tu-Fr 09:00-15:00; Sa 09:00-13:00"}},{"type":"Feature","geometry":{"type":"Point","coordinates":[-1.08655,51.26334]},"properties":{"name":"Chennai Express","cat":"restaurant","brand":"","cuisine":"indian","opening_hours":""}},{"type":"Feature","geometry":{"type":"Point","coordinates":[-1.08461,51.26486]},"properties":{"name":"Wagamama","cat":"restaurant","brand":"Wagamama","cuisine":"asian","opening_hours":"Mo-Th 11:00-22:00; Fr,Sa 11:00-23:00; Su 11:00-23:00"}},{"type":"Feature","geometry":{"type":"Point","coordinates":[-1.08636,51.26396]},"properties":{"name":"Barclays","cat":"bank","brand":"Barclays","cuisine":"","opening_hours":""}},{"type":"Feature","geometry":{"type":"Point","coordinates":[-1.04468,51.27256]},"properties":{"name":"Day Lewis Pharmacy","cat":"pharmacy","brand":"Day Lewis Pharmacy","cuisine":"","opening_hours":"Mo-Fr 09:00-18:00"}},{"type":"Feature","geometry":{"type":"Point","coordinates":[-1.0827,51.24515]},"properties":{"name":"Audleys Wood Hotel","cat":"hotel","brand":"","cuisine":"","opening_hours":""}},{"type":"Feature","geometry":{"type":"Point","coordinates":[-1.03984,51.26846]},"properties":{"name":"Glaysher Family Butchers","cat":"butcher","brand":"","cuisine":"","opening_hours":""}},{"type":"Feature","geometry":{"type":"Point","coordinates":[-1.06749,51.29707]},"properties":{"name":"Pipes","cat":"artwork","brand":"","cuisine":"","opening_hours":""}},{"type":"Feature","geometry":{"type":"Point","coordinates":[-1.0966,51.24802]},"properties":{"name":"Towers","cat":"restaurant","brand":"","cuisine":"indian","opening_hours":""}},{"type":"Feature","geometry":{"type":"Point","coordinates":[-1.0931,51.26132]},"properties":{"name":"Dental Surgery","cat":"dentist","brand":"","cuisine":"","opening_hours":""}},{"type":"Feature","geometry":{"type":"Point","coordinates":[-1.09926,51.26327]},"properties":{"name":"Claremont Dental Surgery","cat":"dentist","brand":"","cuisine":"","opening_hours":""}},{"type":"Feature","geometry":{"type":"Point","coordinates":[-1.10923,51.2657]},"properties":{"name":"Sharks Fin","cat":"artwork","brand":"","cuisine":"","opening_hours":""}},{"type":"Feature","geometry":{"type":"Point","coordinates":[-1.08625,51.26716]},"properties":{"name":"Assura Pharmacy","cat":"pharmacy","brand":"","cuisine":"","opening_hours":""}},{"type":"Feature","geometry":{"type":"Point","coordinates":[-1.087,51.26497]},"properties":{"name":"Lloyds Bank","cat":"atm","brand":"Lloyds Bank","cuisine":"","opening_hours":""}},{"type":"Feature","geometry":{"type":"Point","coordinates":[-1.08676,51.2646]},"properties":{"name":"Greggs","cat":"fast_food","brand":"Greggs","cuisine":"sandwich;bakery","opening_hours":""}},{"type":"Feature","geometry":{"type":"Point","coordinates":[-1.08585,51.26508]},"properties":{"name":"Costa","cat":"cafe","brand":"Costa","cuisine":"coffee_shop","opening_hours":""}},{"type":"Feature","geometry":{"type":"Point","coordinates":[-1.08439,51.26536]},"properties":{"name":"Las Iguanas","cat":"restaurant","brand":"Las Iguanas","cuisine":"brazilian;spanish;argentinian;portuguese;mexican","opening_hours":"Mo-Th 11:00-22:00; Fr-Sa 11:00-22:30; Su 11:00-22:00"}},{"type":"Feature","geometry":{"type":"Point","coordinates":[-1.08833,51.26629]},"properties":{"name":"Subway","cat":"fast_food","brand":"Subway","cuisine":"sandwich","opening_hours":"Mo-We 08:30-20:00; Th-Fr 08:00-21:00; Sa 08:00-20:00; Su 09:00-21:00"}},{"type":"Feature","geometry":{"type":"Point","coordinates":[-1.10361,51.26348]},"properties":{"name":"Morrisons Cafe","cat":"cafe","brand":"Morrisons","cuisine":"coffee_shop","opening_hours":"Mo-Sa 08:00-17:00; Su 09:30-16:00"}},{"type":"Feature","geometry":{"type":"Point","coordinates":[-1.0869,51.25629]},"properties":{"name":"Cafe Q.M.","cat":"cafe","brand":"","cuisine":"","opening_hours":""}},{"type":"Feature","geometry":{"type":"Point","coordinates":[-1.0865,51.26769]},"properties":{"name":"India Gate","cat":"fast_food","brand":"","cuisine":"indian","opening_hours":""}},{"type":"Feature","geometry":{"type":"Point","coordinates":[-1.09086,51.25901]},"properties":{"name":"Basingstoke Sports & Social Club","cat":"sports_centre","brand":"","cuisine":"","opening_hours":""}},{"type":"Feature","geometry":{"type":"Point","coordinates":[-1.13805,51.24656]},"properties":{"name":"China Garden","cat":"fast_food","brand":"","cuisine":"chinese","opening_hours":""}},{"type":"Feature","geometry":{"type":"Point","coordinates":[-1.0938,51.25281]},"properties":{"name":"Beijing House","cat":"fast_food","brand":"","cuisine":"chinese","opening_hours":""}},{"type":"Feature","geometry":{"type":"Point","coordinates":[-1.0585,51.28339]},"properties":{"name":"Tesco Pharmacy","cat":"pharmacy","brand":"Tesco","cuisine":"","opening_hours":""}},{"type":"Feature","geometry":{"type":"Point","coordinates":[-1.106,51.26504]},"properties":{"name":"Basingstoke Kebab House","cat":"fast_food","brand":"","cuisine":"kebab","opening_hours":""}},{"type":"Feature","geometry":{"type":"Point","coordinates":[-1.12409,51.25867]},"properties":{"name":"Burnaby Bites","cat":"restaurant","brand":"","cuisine":"indian","opening_hours":""}},{"type":"Feature","geometry":{"type":"Point","coordinates":[-1.12438,51.25867]},"properties":{"name":"Diep Bao","cat":"fast_food","brand":"","cuisine":"fish_and_chips","opening_hours":""}},{"type":"Feature","geometry":{"type":"Point","coordinates":[-1.08712,51.26387]},"properties":{"name":"Wimpy","cat":"fast_food","brand":"Wimpy","cuisine":"burger","opening_hours":"Mo-Sa 09:00-19:00; Su 10:00-17:00"}},{"type":"Feature","geometry":{"type":"Point","coordinates":[-1.11324,51.24558]},"properties":{"name":"mydentist","cat":"dentist","brand":"mydentist","cuisine":"","opening_hours":""}},{"type":"Feature","geometry":{"type":"Point","coordinates":[-1.11338,51.24567]},"properties":{"name":"Neil's Pharmacy","cat":"pharmacy","brand":"","cuisine":"","opening_hours":""}},{"type":"Feature","geometry":{"type":"Point","coordinates":[-1.07262,51.26884]},"properties":{"name":"Hartley Kitchen","cat":"cafe","brand":"","cuisine":"","opening_hours":""}},{"type":"Feature","geometry":{"type":"Point","coordinates":[-1.15131,51.26437]},"properties":{"name":"Maize Maze","cat":"attraction","brand":"","cuisine":"","opening_hours":""}},{"type":"Feature","geometry":{"type":"Point","coordinates":[-1.13318,51.25598]},"properties":{"name":"Curry Queen","cat":"fast_food","brand":"","cuisine":"indian","opening_hours":""}},{"type":"Feature","geometry":{"type":"Point","coordinates":[-1.13309,51.25596]},"properties":{"name":"Food Street","cat":"fast_food","brand":"","cuisine":"kebab","opening_hours":""}},{"type":"Feature","geometry":{"type":"Point","coordinates":[-1.11391,51.24485]},"properties":{"name":"Saffron Tandoori","cat":"restaurant","brand":"","cuisine":"indian","opening_hours":"Mo-Su 12:00-14:00, 17:30-23:00"}},{"type":"Feature","geometry":{"type":"Point","coordinates":[-1.07938,51.27714]},"properties":{"name":"Oakridge Fish & Chips & Chinese Takeaway","cat":"fast_food","brand":"","cuisine":"fish_and_chips","opening_hours":"Mo-Sa 12:00-14:00,17:00-23:00; Su off"}},{"type":"Feature","geometry":{"type":"Point","coordinates":[-1.08809,51.26547]},"properties":{"name":"Pizza Hut Express","cat":"fast_food","brand":"Pizza Hut","cuisine":"pizza","opening_hours":"Mo-Th 11:00-23:00; Fr-Sa 11:00-24:00; Su 11:00-23:00"}},{"type":"Feature","geometry":{"type":"Point","coordinates":[-1.08801,51.26546]},"properties":{"name":"ShakeAway","cat":"fast_food","brand":"ShakeAway","cuisine":"frozen_yogurt;dessert","opening_hours":"Mo-Fr,Su 10:00-17:30; Sa 10:00-18:00"}},{"type":"Feature","geometry":{"type":"Point","coordinates":[-1.08319,51.2641]},"properties":{"name":"Arlan House","cat":"hotel","brand":"","cuisine":"","opening_hours":""}},{"type":"Feature","geometry":{"type":"Point","coordinates":[-1.08879,51.26718]},"properties":{"name":"Poppy","cat":"artwork","brand":"","cuisine":"","opening_hours":""}},{"type":"Feature","geometry":{"type":"Point","coordinates":[-1.12377,51.26786]},"properties":{"name":"Mr G's Cafe","cat":"cafe","brand":"","cuisine":"coffee_shop","opening_hours":""}},{"type":"Feature","geometry":{"type":"Point","coordinates":[-1.0633,51.2725]},"properties":{"name":"Buildbite Cafe","cat":"cafe","brand":"","cuisine":"","opening_hours":""}},{"type":"Feature","geometry":{"type":"Point","coordinates":[-1.08748,51.26378]},"properties":{"name":"Nationwide","cat":"bank","brand":"Nationwide","cuisine":"","opening_hours":"Mo-Tu, Th-Fr 09:00-16:30; Sa 09:30-13:00; We 10:00-16:30"}},{"type":"Feature","geometry":{"type":"Point","coordinates":[-1.08555,51.2623]},"properties":{"name":"Sanctuary Live","cat":"attraction","brand":"","cuisine":"","opening_hours":""}},{"type":"Feature","geometry":{"type":"Point","coordinates":[-1.09024,51.2623]},"properties":{"name":"Domino's","cat":"fast_food","brand":"Domino's","cuisine":"pizza","opening_hours":"Mo-Su 11:00-01:00"}},{"type":"Feature","geometry":{"type":"Point","coordinates":[-1.08708,51.26261]},"properties":{"name":"Jane Austen","cat":"artwork","brand":"","cuisine":"","opening_hours":""}},{"type":"Feature","geometry":{"type":"Point","coordinates":[-1.13952,51.23475]},"properties":{"name":"Starbucks","cat":"cafe","brand":"Starbucks","cuisine":"coffee_shop","opening_hours":""}},{"type":"Feature","geometry":{"type":"Point","coordinates":[-1.0624,51.2718]},"properties":{"name":"Charlie's Cafe","cat":"cafe","brand":"","cuisine":"burger;sandwich;breakfast;diner;coffee_shop","opening_hours":"Mo-Th 07:00-14:30; Fr 07:00-14:00; Sa 08:00-13:00"}},{"type":"Feature","geometry":{"type":"Point","coordinates":[-1.08822,51.26705]},"properties":{"name":"KFC","cat":"fast_food","brand":"KFC","cuisine":"chicken","opening_hours":"Mo-Su 10:00-23:00"}},{"type":"Feature","geometry":{"type":"Point","coordinates":[-1.0877,51.26826]},"properties":{"name":"Shop Destino","cat":"convenience","brand":"","cuisine":"","opening_hours":""}},{"type":"Feature","geometry":{"type":"Point","coordinates":[-1.11374,51.25647]},"properties":{"name":"Damira Dental Studios","cat":"dentist","brand":"Damira","cuisine":"","opening_hours":"Mo-Su 08:00-20:00"}},{"type":"Feature","geometry":{"type":"Point","coordinates":[-1.0872,51.26423]},"properties":{"name":"Festival Street Kitchen","cat":"restaurant","brand":"","cuisine":"","opening_hours":"Mo-Th 09:00-20:00; Fr,Sa 09:00-22:00; Su 09:30-16:30"}},{"type":"Feature","geometry":{"type":"Point","coordinates":[-1.08553,51.26621]},"properties":{"name":"Newscentre","cat":"convenience","brand":"","cuisine":"","opening_hours":""}},{"type":"Feature","geometry":{"type":"Point","coordinates":[-1.08669,51.26344]},"properties":{"name":"Dixy Chicken","cat":"fast_food","brand":"Dixy Chicken","cuisine":"chicken","opening_hours":""}},{"type":"Feature","geometry":{"type":"Point","coordinates":[-1.05907,51.28125]},"properties":{"name":"Grove House Bistro","cat":"cafe","brand":"","cuisine":"sandwich","opening_hours":"Mo-Fr 08:30-14:30"}},{"type":"Feature","geometry":{"type":"Point","coordinates":[-1.08938,51.26236]},"properties":{"name":"Agra Balti House","cat":"restaurant","brand":"","cuisine":"curry","opening_hours":""}},{"type":"Feature","geometry":{"type":"Point","coordinates":[-1.11781,51.25031]},"properties":{"name":"The Red Rose Tandoori Restaurant","cat":"restaurant","brand":"","cuisine":"indian","opening_hours":""}},{"type":"Feature","geometry":{"type":"Point","coordinates":[-1.13464,51.25182]},"properties":{"name":"Premier Kempshott Stores","cat":"convenience","brand":"Premier","cuisine":"","opening_hours":"PH,Mo-Su 05:00-20:00"}},{"type":"Feature","geometry":{"type":"Point","coordinates":[-1.11296,51.24432]},"properties":{"name":"Asda Caf\u00e9","cat":"cafe","brand":"Asda","cuisine":"coffee_shop","opening_hours":"Mo-Sa 07:00-22:00; Su 10:00-16:00"}},{"type":"Feature","geometry":{"type":"Point","coordinates":[-1.05823,51.27641]},"properties":{"name":"Cromwell Tandoori","cat":"restaurant","brand":"","cuisine":"indian","opening_hours":""}},{"type":"Feature","geometry":{"type":"Point","coordinates":[-1.1417,51.23441]},"properties":{"name":"Lidl","cat":"supermarket","brand":"Lidl","cuisine":"","opening_hours":""}},{"type":"Feature","geometry":{"type":"Point","coordinates":[-1.06449,51.29685]},"properties":{"name":"Hawker Hunter E-408/WT 720","cat":"attraction","brand":"","cuisine":"","opening_hours":""}},{"type":"Feature","geometry":{"type":"Point","coordinates":[-1.11587,51.28236]},"properties":{"name":"Yummy Nosh","cat":"fast_food","brand":"","cuisine":"fish_and_chips","opening_hours":"We 17:00-22:00"}},{"type":"Feature","geometry":{"type":"Point","coordinates":[-1.06941,51.28147]},"properties":{"name":"Dee Dee's Family Caf\u00e9","cat":"cafe","brand":"Dee Dee's Family Caf\u00e9","cuisine":"coffee_shop","opening_hours":""}},{"type":"Feature","geometry":{"type":"Point","coordinates":[-1.08489,51.26229]},"properties":{"name":"Gabardine Bar","cat":"bar","brand":"","cuisine":"","opening_hours":""}},{"type":"Feature","geometry":{"type":"Point","coordinates":[-1.08167,51.26795]},"properties":{"name":"Waitrose Cafe","cat":"cafe","brand":"Waitrose","cuisine":"","opening_hours":""}},{"type":"Feature","geometry":{"type":"Point","coordinates":[-1.08502,51.26506]},"properties":{"name":"Five Guys","cat":"fast_food","brand":"Five Guys","cuisine":"burger","opening_hours":"Mo-Su 11:00-23:00"}},{"type":"Feature","geometry":{"type":"Point","coordinates":[-1.08781,51.28349]},"properties":{"name":"St Gabriel's Church","cat":"place_of_worship","brand":"","cuisine":"","opening_hours":""}},{"type":"Feature","geometry":{"type":"Point","coordinates":[-1.14235,51.22961]},"properties":{"name":"The Co-operative Food","cat":"supermarket","brand":"The Co-operative Food","cuisine":"","opening_hours":"Mo-Su 07:00-22:00"}},{"type":"Feature","geometry":{"type":"Point","coordinates":[-1.14308,51.26377]},"properties":{"name":"More of the Good Stuff","cat":"cafe","brand":"","cuisine":"","opening_hours":""}},{"type":"Feature","geometry":{"type":"Point","coordinates":[-1.08715,51.26437]},"properties":{"name":"KOKORO","cat":"fast_food","brand":"KOKORO","cuisine":"japanese;korean;sushi","opening_hours":"Mo-Sa 11:00-21:00; Su,PH 11:00-19:00"}},{"type":"Feature","geometry":{"type":"Point","coordinates":[-1.08755,51.26444]},"properties":{"name":"Savers","cat":"chemist","brand":"Savers","cuisine":"","opening_hours":"Mo-Sa 09:30-19:00; Su 11:00-17:00"}},{"type":"Feature","geometry":{"type":"Point","coordinates":[-1.08717,51.26408]},"properties":{"name":"Newbury Building Society","cat":"bank","brand":"Newbury Building Society","cuisine":"","opening_hours":"Mo-Fr 09:00-17:00; Sa 09:00-12:00; PH off"}},{"type":"Feature","geometry":{"type":"Point","coordinates":[-1.08821,51.26711]},"properties":{"name":"German Doner Kebab","cat":"fast_food","brand":"German Doner Kebab","cuisine":"kebab","opening_hours":"Mo-Su 11:00-23:00"}},{"type":"Feature","geometry":{"type":"Point","coordinates":[-1.08688,51.26567]},"properties":{"name":"Bubble CiTea","cat":"cafe","brand":"","cuisine":"bubble_tea","opening_hours":""}},{"type":"Feature","geometry":{"type":"Point","coordinates":[-1.08742,51.26545]},"properties":{"name":"La Vo Patisserie","cat":"cafe","brand":"","cuisine":"cake","opening_hours":""}},{"type":"Feature","geometry":{"type":"Point","coordinates":[-1.08571,51.26475]},"properties":{"name":"Santander","cat":"bank","brand":"Santander","cuisine":"","opening_hours":"Mo-Sa 09:30-17:00; Su 09:30-12:30"}},{"type":"Feature","geometry":{"type":"Point","coordinates":[-1.08819,51.26616]},"properties":{"name":"Tesco Express","cat":"convenience","brand":"Tesco Express","cuisine":"","opening_hours":"Mo-Sa 07:00-22:00; Su 11:00-17:00"}},{"type":"Feature","geometry":{"type":"Point","coordinates":[-1.06866,51.29247]},"properties":{"name":"The Exchange","cat":"cafe","brand":"Gather + Gather","cuisine":"coffee_shop","opening_hours":"Mo-Fr 07:30-15:00"}},{"type":"Feature","geometry":{"type":"Point","coordinates":[-1.11452,51.24522]},"properties":{"name":"St Kitts Vets","cat":"veterinary","brand":"","cuisine":"","opening_hours":"Mo-Fr 08:00-16:00; Sa-Su 08:30-16:00"}},{"type":"Feature","geometry":{"type":"Point","coordinates":[-1.12939,51.26211]},"properties":{"name":"Budgens","cat":"convenience","brand":"Budgens","cuisine":"","opening_hours":"24/7"}},{"type":"Feature","geometry":{"type":"Point","coordinates":[-1.11143,51.28163]},"properties":{"name":"Coronary Care Unit (CCU) and Cardiology Ward","cat":"hospital","brand":"","cuisine":"","opening_hours":""}},{"type":"Feature","geometry":{"type":"Point","coordinates":[-1.14584,51.23093]},"properties":{"name":"Breakfast & Kebabs Van","cat":"fast_food","brand":"","cuisine":"","opening_hours":""}},{"type":"Feature","geometry":{"type":"Point","coordinates":[-1.11034,51.25665]},"properties":{"name":"Woo's Take Away","cat":"fast_food","brand":"","cuisine":"chinese","opening_hours":""}},{"type":"Feature","geometry":{"type":"Point","coordinates":[-1.14517,51.23112]},"properties":{"name":"The Hampshire Vet","cat":"veterinary","brand":"","cuisine":"","opening_hours":""}},{"type":"Feature","geometry":{"type":"Point","coordinates":[-1.13053,51.26322]},"properties":{"name":"The Oriental Break","cat":"fast_food","brand":"","cuisine":"chinese","opening_hours":""}},{"type":"Feature","geometry":{"type":"Point","coordinates":[-1.09027,51.26233]},"properties":{"name":"Number 8 Chinese Takeaway","cat":"fast_food","brand":"","cuisine":"chinese","opening_hours":""}},{"type":"Feature","geometry":{"type":"Point","coordinates":[-1.09036,51.26239]},"properties":{"name":"BNC Gurkha Grocery","cat":"convenience","brand":"","cuisine":"","opening_hours":"Mo-Sa 09:00-20:00; Su 10:00-19:00"}},{"type":"Feature","geometry":{"type":"Point","coordinates":[-1.0868,51.26466]},"properties":{"name":"Wenzel's","cat":"bakery","brand":"Wenzel's","cuisine":"","opening_hours":"Mo-Sa 07:00-19:00; Su 08:00-17:00"}},{"type":"Feature","geometry":{"type":"Point","coordinates":[-1.08855,51.26625]},"properties":{"name":"Oriental Mart","cat":"supermarket","brand":"","cuisine":"asian","opening_hours":"Mo-Sa 09:00-19:00; Su 09:00-18:00"}},{"type":"Feature","geometry":{"type":"Point","coordinates":[-1.08728,51.26435]},"properties":{"name":"Chi Street Food","cat":"restaurant","brand":"","cuisine":"asian","opening_hours":"Mo-Sa 11:00-22:00; Su 11:00-21:00"}},{"type":"Feature","geometry":{"type":"Point","coordinates":[-1.087,51.26442]},"properties":{"name":"Cafe Giardino","cat":"restaurant","brand":"","cuisine":"italian","opening_hours":"Su-Th 09:00-17:00; Fr 08:00-18:00; Sa 08:00-19:00"}},{"type":"Feature","geometry":{"type":"Point","coordinates":[-1.08861,51.26226]},"properties":{"name":"Madina Halal Supermarket","cat":"supermarket","brand":"","cuisine":"","opening_hours":""}},{"type":"Feature","geometry":{"type":"Point","coordinates":[-1.08665,51.26347]},"properties":{"name":"Duck and Tipple","cat":"bar","brand":"","cuisine":"","opening_hours":""}},{"type":"Feature","geometry":{"type":"Point","coordinates":[-1.0891,51.26351]},"properties":{"name":"Chopstix Chinese Takeaway","cat":"restaurant","brand":"","cuisine":"chinese","opening_hours":"Su-Mo 11:00-14:00,16:30-22:30; Tu off; We-Th 11:00-14:00,16:30-22:30; Fr-Sa 11:00-14:00,16:30-23:00; PH 11:00-14:00,16:30-22:30"}},{"type":"Feature","geometry":{"type":"Point","coordinates":[-1.08911,51.26346]},"properties":{"name":"Charcoal Grill","cat":"fast_food","brand":"","cuisine":"kebab;burger;chicken","opening_hours":""}},{"type":"Feature","geometry":{"type":"Point","coordinates":[-1.08911,51.26341]},"properties":{"name":"Pizza World","cat":"fast_food","brand":"","cuisine":"pizza;burger;fried_chicken;wings;kebab","opening_hours":""}},{"type":"Feature","geometry":{"type":"Point","coordinates":[-1.08631,51.26355]},"properties":{"name":"Plush","cat":"bar","brand":"","cuisine":"","opening_hours":""}},{"type":"Feature","geometry":{"type":"Point","coordinates":[-1.08777,51.26068]},"properties":{"name":"New City Chinese Takeaway","cat":"fast_food","brand":"","cuisine":"chinese","opening_hours":""}},{"type":"Feature","geometry":{"type":"Point","coordinates":[-1.08722,51.2652]},"properties":{"name":"Auntie Anne's","cat":"fast_food","brand":"Auntie Anne's","cuisine":"pretzel","opening_hours":""}},{"type":"Feature","geometry":{"type":"Point","coordinates":[-1.08778,51.26378]},"properties":{"name":"Mr Munch","cat":"restaurant","brand":"","cuisine":"burger","opening_hours":"Mo-Fr 08:00-18:30"}},{"type":"Feature","geometry":{"type":"Point","coordinates":[-1.08781,51.26378]},"properties":{"name":"Spicy Tadka","cat":"restaurant","brand":"","cuisine":"indian","opening_hours":"Mo-Fr 11:00-22:00; Sa 12:00-23:00; Su 12:00-22:00"}},{"type":"Feature","geometry":{"type":"Point","coordinates":[-1.08768,51.26373]},"properties":{"name":"Afrizi","cat":"restaurant","brand":"","cuisine":"african","opening_hours":"Mo-Sa 11:30-20:00; Su 12:00-18:00"}},{"type":"Feature","geometry":{"type":"Point","coordinates":[-1.09663,51.2582]},"properties":{"name":"King's Furlong","cat":"fast_food","brand":"","cuisine":"chinese;fish_and_chips","opening_hours":"Mo-Sa 17:00-22:00"}},{"type":"Feature","geometry":{"type":"Point","coordinates":[-1.08486,51.26538]},"properties":{"name":"River of Light","cat":"artwork","brand":"","cuisine":"","opening_hours":""}},{"type":"Feature","geometry":{"type":"Point","coordinates":[-1.08462,51.265]},"properties":{"name":"Fountain Trees","cat":"fountain","brand":"","cuisine":"","opening_hours":""}},{"type":"Feature","geometry":{"type":"Point","coordinates":[-1.08624,51.26378]},"properties":{"name":"Scooperb","cat":"restaurant","brand":"","cuisine":"dessert","opening_hours":""}},{"type":"Feature","geometry":{"type":"Point","coordinates":[-1.08442,51.26522]},"properties":{"name":"El Bigote","cat":"restaurant","brand":"","cuisine":"","opening_hours":""}},{"type":"Feature","geometry":{"type":"Point","coordinates":[-1.08548,51.26471]},"properties":{"name":"Slim Chickens","cat":"fast_food","brand":"Slim Chickens","cuisine":"chicken","opening_hours":""}},{"type":"Feature","geometry":{"type":"Point","coordinates":[-1.08487,51.26484]},"properties":{"name":"C\u00f4te Brasserie","cat":"restaurant","brand":"C\u00f4te Brasserie","cuisine":"french","opening_hours":""}},{"type":"Feature","geometry":{"type":"Point","coordinates":[-1.08527,51.26474]},"properties":{"name":"Heavenly Desserts","cat":"restaurant","brand":"","cuisine":"dessert","opening_hours":"Mo-Fr 11:00-23:00; Sa-Su 10:00-23:00"}},{"type":"Feature","geometry":{"type":"Point","coordinates":[-1.08406,51.26424]},"properties":{"name":"Chequers Dental Clinic","cat":"dentist","brand":"","cuisine":"","opening_hours":""}},{"type":"Feature","geometry":{"type":"Point","coordinates":[-1.0867,51.26259]},"properties":{"name":"Poppins","cat":"restaurant","brand":"","cuisine":"burger;coffee_shop;sandwich","opening_hours":""}},{"type":"Feature","geometry":{"type":"Point","coordinates":[-1.06924,51.28392]},"properties":{"name":"Pausa","cat":"cafe","brand":"","cuisine":"","opening_hours":"Mo-Fr 09:00-17:00, Sa 09:00-17:30; Su 10:30-16:30"}},{"type":"Feature","geometry":{"type":"Point","coordinates":[-1.06784,51.28603]},"properties":{"name":"Chineham Hand Car Wash","cat":"car_wash","brand":"","cuisine":"","opening_hours":""}},{"type":"Feature","geometry":{"type":"Point","coordinates":[-1.08618,51.26407]},"properties":{"name":"Popeyes","cat":"fast_food","brand":"Popeyes","cuisine":"chicken","opening_hours":"Mo-Su 10:00-22:00"}},{"type":"Feature","geometry":{"type":"Point","coordinates":[-1.08552,51.26516]},"properties":{"name":"Han's Buffet","cat":"restaurant","brand":"","cuisine":"asian","opening_hours":"Mo-Th 12:00-15:00,17:30-21:30; Fr 12:00-15:00,17:30-22:00; Sa 12:00-22:30; Su 12:00-21:30"}},{"type":"Feature","geometry":{"type":"Point","coordinates":[-1.08861,51.26709]},"properties":{"name":"Delikatesy Smaczek","cat":"supermarket","brand":"","cuisine":"","opening_hours":""}},{"type":"Feature","geometry":{"type":"Point","coordinates":[-1.05778,51.27623]},"properties":{"name":"The Street","cat":"cafe","brand":"","cuisine":"","opening_hours":""}},{"type":"Feature","geometry":{"type":"Point","coordinates":[-1.08749,51.26828]},"properties":{"name":"Warrens Bakery","cat":"bakery","brand":"Warrens Bakery","cuisine":"","opening_hours":""}},{"type":"Feature","geometry":{"type":"Point","coordinates":[-1.08833,51.26244]},"properties":{"name":"Honey & Ghee Grocers","cat":"supermarket","brand":"","cuisine":"","opening_hours":"Mo-Su 08:00-21:45"}},{"type":"Feature","geometry":{"type":"Point","coordinates":[-1.12008,51.28166]},"properties":{"name":"Hampshire Dental Care","cat":"dentist","brand":"","cuisine":"","opening_hours":""}},{"type":"Feature","geometry":{"type":"Point","coordinates":[-1.08829,51.26692]},"properties":{"name":"Smileright Dental Clinic","cat":"dentist","brand":"","cuisine":"","opening_hours":""}},{"type":"Feature","geometry":{"type":"Point","coordinates":[-1.08454,51.26243]},"properties":{"name":"Elai","cat":"restaurant","brand":"","cuisine":"indian","opening_hours":""}},{"type":"Feature","geometry":{"type":"Point","coordinates":[-1.08698,51.26253]},"properties":{"name":"Market Place","cat":"marketplace","brand":"","cuisine":"","opening_hours":"We 09:00-16:30; Sa 09:00-16:30"}},{"type":"Feature","geometry":{"type":"Point","coordinates":[-1.10892,51.25185]},"properties":{"name":"McDonald's","cat":"fast_food","brand":"McDonald's","cuisine":"burger","opening_hours":"Mo-Su 06:00-24:00"}},{"type":"Feature","geometry":{"type":"Point","coordinates":[-1.08515,51.2636]},"properties":{"name":"Red Lion Car Park","cat":"parking","brand":"","cuisine":"","opening_hours":""}},{"type":"Feature","geometry":{"type":"Point","coordinates":[-1.08804,51.26123]},"properties":{"name":"Castons Car Park","cat":"parking","brand":"","cuisine":"","opening_hours":""}},{"type":"Feature","geometry":{"type":"Point","coordinates":[-1.08831,51.26193]},"properties":{"name":"Alberts Yard","cat":"parking","brand":"","cuisine":"","opening_hours":""}},{"type":"Feature","geometry":{"type":"Point","coordinates":[-1.08756,51.26193]},"properties":{"name":"Castons Yard","cat":"parking","brand":"","cuisine":"","opening_hours":""}},{"type":"Feature","geometry":{"type":"Point","coordinates":[-1.08727,51.26117]},"properties":{"name":"Southern Road Car Park","cat":"parking","brand":"","cuisine":"","opening_hours":""}},{"type":"Feature","geometry":{"type":"Point","coordinates":[-1.06065,51.28438]},"properties":{"name":"West Car Park","cat":"parking","brand":"","cuisine":"","opening_hours":""}},{"type":"Feature","geometry":{"type":"Point","coordinates":[-1.0576,51.28458]},"properties":{"name":"East Car Park","cat":"parking","brand":"","cuisine":"","opening_hours":""}},{"type":"Feature","geometry":{"type":"Point","coordinates":[-1.05982,51.28271]},"properties":{"name":"South Car Park","cat":"parking","brand":"","cuisine":"","opening_hours":""}},{"type":"Feature","geometry":{"type":"Point","coordinates":[-1.05965,51.28368]},"properties":{"name":"Chineham Library","cat":"library","brand":"","cuisine":"","opening_hours":""}},{"type":"Feature","geometry":{"type":"Point","coordinates":[-1.10325,51.26374]},"properties":{"name":"Morrisons","cat":"supermarket","brand":"Morrisons","cuisine":"","opening_hours":"Mo-Sa 07:00-22:00; Su 10:00-16:00"}},{"type":"Feature","geometry":{"type":"Point","coordinates":[-1.08716,51.26353]},"properties":{"name":"Haymarket Yard","cat":"parking","brand":"","cuisine":"","opening_hours":""}},{"type":"Feature","geometry":{"type":"Point","coordinates":[-1.07675,51.26622]},"properties":{"name":"Eastrop Park Car Park","cat":"parking","brand":"","cuisine":"","opening_hours":""}},{"type":"Feature","geometry":{"type":"Point","coordinates":[-1.08779,51.26893]},"properties":{"name":"Basingstoke Railway Station Car Park","cat":"parking","brand":"","cuisine":"","opening_hours":""}},{"type":"Feature","geometry":{"type":"Point","coordinates":[-1.11352,51.2442]},"properties":{"name":"Asda","cat":"supermarket","brand":"Asda","cuisine":"","opening_hours":"Mo-Sa 07:00-22:00; Su 10:00-16:00"}},{"type":"Feature","geometry":{"type":"Point","coordinates":[-1.08797,51.26958]},"properties":{"name":"Vyne Meadow Car Park","cat":"parking","brand":"","cuisine":"","opening_hours":""}},{"type":"Feature","geometry":{"type":"Point","coordinates":[-1.14171,51.23625]},"properties":{"name":"Old Down Hall","cat":"community_centre","brand":"","cuisine":"","opening_hours":""}},{"type":"Feature","geometry":{"type":"Point","coordinates":[-1.09032,51.26631]},"properties":{"name":"Churchill Way East Car Park","cat":"parking","brand":"","cuisine":"","opening_hours":""}},{"type":"Feature","geometry":{"type":"Point","coordinates":[-1.0911,51.26602]},"properties":{"name":"Churchill Way Car Park","cat":"parking","brand":"","cuisine":"","opening_hours":""}},{"type":"Feature","geometry":{"type":"Point","coordinates":[-1.12537,51.25511]},"properties":{"name":"Balmoral Court","cat":"parking","brand":"","cuisine":"","opening_hours":""}},{"type":"Feature","geometry":{"type":"Point","coordinates":[-1.13485,51.25242]},"properties":{"name":"Kempshott Village Hall","cat":"community_centre","brand":"","cuisine":"","opening_hours":""}},{"type":"Feature","geometry":{"type":"Point","coordinates":[-1.08491,51.26189]},"properties":{"name":"Jacobs Yard Car Park","cat":"parking","brand":"","cuisine":"","opening_hours":""}},{"type":"Feature","geometry":{"type":"Point","coordinates":[-1.08319,51.2628]},"properties":{"name":"Eastlands Car Park","cat":"parking","brand":"","cuisine":"","opening_hours":""}},{"type":"Feature","geometry":{"type":"Point","coordinates":[-1.12018,51.26458]},"properties":{"name":"Car Park 2","cat":"parking","brand":"","cuisine":"","opening_hours":""}},{"type":"Feature","geometry":{"type":"Point","coordinates":[-1.11875,51.26604]},"properties":{"name":"Car Park 3","cat":"parking","brand":"","cuisine":"","opening_hours":""}},{"type":"Feature","geometry":{"type":"Point","coordinates":[-1.11625,51.26632]},"properties":{"name":"Car Park 4","cat":"parking","brand":"","cuisine":"","opening_hours":""}},{"type":"Feature","geometry":{"type":"Point","coordinates":[-1.11564,51.26641]},"properties":{"name":"Car Park 5","cat":"parking","brand":"","cuisine":"","opening_hours":""}},{"type":"Feature","geometry":{"type":"Point","coordinates":[-1.11496,51.26646]},"properties":{"name":"Car Park 6","cat":"parking","brand":"","cuisine":"","opening_hours":""}},{"type":"Feature","geometry":{"type":"Point","coordinates":[-1.11425,51.26647]},"properties":{"name":"Car Park 7","cat":"parking","brand":"","cuisine":"","opening_hours":""}},{"type":"Feature","geometry":{"type":"Point","coordinates":[-1.11528,51.26581]},"properties":{"name":"Car Park 8","cat":"parking","brand":"","cuisine":"","opening_hours":""}},{"type":"Feature","geometry":{"type":"Point","coordinates":[-1.11669,51.26628]},"properties":{"name":"Coach Park","cat":"parking","brand":"","cuisine":"","opening_hours":""}},{"type":"Feature","geometry":{"type":"Point","coordinates":[-1.11937,51.26415]},"properties":{"name":"Car Park 1","cat":"parking","brand":"","cuisine":"","opening_hours":""}},{"type":"Feature","geometry":{"type":"Point","coordinates":[-1.08377,51.26881]},"properties":{"name":"Bunnian Place Car Park","cat":"parking","brand":"","cuisine":"","opening_hours":""}},{"type":"Feature","geometry":{"type":"Point","coordinates":[-1.08879,51.2593]},"properties":{"name":"Carnival Hall","cat":"community_centre","brand":"","cuisine":"","opening_hours":""}},{"type":"Feature","geometry":{"type":"Point","coordinates":[-1.10914,51.27857]},"properties":{"name":"Staff Parking","cat":"parking","brand":"","cuisine":"","opening_hours":""}},{"type":"Feature","geometry":{"type":"Point","coordinates":[-1.10912,51.27949]},"properties":{"name":"Visitors Parking","cat":"parking","brand":"","cuisine":"","opening_hours":""}},{"type":"Feature","geometry":{"type":"Point","coordinates":[-1.05438,51.27291]},"properties":{"name":"Basing House Coach Park","cat":"parking","brand":"","cuisine":"","opening_hours":""}},{"type":"Feature","geometry":{"type":"Point","coordinates":[-1.05417,51.27262]},"properties":{"name":"Basing House Car Park","cat":"parking","brand":"","cuisine":"","opening_hours":""}},{"type":"Feature","geometry":{"type":"Point","coordinates":[-1.0341,51.26381]},"properties":{"name":"The Hatch Car Park","cat":"parking","brand":"","cuisine":"","opening_hours":""}},{"type":"Feature","geometry":{"type":"Point","coordinates":[-1.04363,51.27769]},"properties":{"name":"Old Basing Village Hall","cat":"community_centre","brand":"","cuisine":"","opening_hours":""}},{"type":"Feature","geometry":{"type":"Point","coordinates":[-1.04328,51.27482]},"properties":{"name":"Additional Recreation Ground Parking","cat":"parking","brand":"","cuisine":"","opening_hours":""}},{"type":"Feature","geometry":{"type":"Point","coordinates":[-1.09098,51.2621]},"properties":{"name":"Brinkletts Car Park","cat":"parking","brand":"","cuisine":"","opening_hours":""}},{"type":"Feature","geometry":{"type":"Point","coordinates":[-1.09084,51.26297]},"properties":{"name":"Sarum Hill Car Park","cat":"parking","brand":"","cuisine":"","opening_hours":""}},{"type":"Feature","geometry":{"type":"Point","coordinates":[-1.0953,51.23563]},"properties":{"name":"Cliddesden Millennium Village Hall","cat":"community_centre","brand":"","cuisine":"","opening_hours":""}},{"type":"Feature","geometry":{"type":"Point","coordinates":[-1.13922,51.28611]},"properties":{"name":"Shothanger Works","cat":"parking","brand":"","cuisine":"","opening_hours":""}},{"type":"Feature","geometry":{"type":"Point","coordinates":[-1.09678,51.26617]},"properties":{"name":"Brookvale Village Hall","cat":"community_centre","brand":"","cuisine":"","opening_hours":""}},{"type":"Feature","geometry":{"type":"Point","coordinates":[-1.11225,51.28271]},"properties":{"name":"Parklands Hospital","cat":"hospital","brand":"","cuisine":"","opening_hours":""}},{"type":"Feature","geometry":{"type":"Point","coordinates":[-1.08514,51.26947]},"properties":{"name":"North Yard Car Park","cat":"parking","brand":"","cuisine":"","opening_hours":""}},{"type":"Feature","geometry":{"type":"Point","coordinates":[-1.06046,51.28379]},"properties":{"name":"M&S Foodhall","cat":"supermarket","brand":"Marks & Spencer","cuisine":"","opening_hours":"Mo-Sa 08:00-21:00; Su 10:00-16:00"}},{"type":"Feature","geometry":{"type":"Point","coordinates":[-1.05869,51.28364]},"properties":{"name":"Tesco","cat":"supermarket","brand":"Tesco","cuisine":"","opening_hours":"Mo-Sa 06:00-00:00; Su 10:00-16:00; easter [-2] 06:00-22:00; easter [-1] 06:00-00:00; easter off; easter [+1] 08:00-18:00; 2025 May 26 10:00-20:00"}},{"type":"Feature","geometry":{"type":"Point","coordinates":[-1.05358,51.28344]},"properties":{"name":"Great Binfields Primary School","cat":"school","brand":"","cuisine":"","opening_hours":""}},{"type":"Feature","geometry":{"type":"Point","coordinates":[-1.04589,51.26992]},"properties":{"name":"Old Basing Infant School","cat":"school","brand":"","cuisine":"","opening_hours":""}},{"type":"Feature","geometry":{"type":"Point","coordinates":[-1.04246,51.27047]},"properties":{"name":"St Mary's Church of England Voluntary Aided Junior School","cat":"school","brand":"","cuisine":"","opening_hours":""}},{"type":"Feature","geometry":{"type":"Point","coordinates":[-1.11588,51.2472]},"properties":{"name":"Brighton Hill Community School","cat":"school","brand":"","cuisine":"","opening_hours":""}},{"type":"Feature","geometry":{"type":"Point","coordinates":[-1.11501,51.25538]},"properties":{"name":"St Anne's Catholic Primary School","cat":"school","brand":"","cuisine":"","opening_hours":""}},{"type":"Feature","geometry":{"type":"Point","coordinates":[-1.10617,51.24688]},"properties":{"name":"Chalk Ridge Primary School","cat":"school","brand":"","cuisine":"","opening_hours":""}},{"type":"Feature","geometry":{"type":"Point","coordinates":[-1.11409,51.25853]},"properties":{"name":"Limington House School","cat":"school","brand":"","cuisine":"","opening_hours":""}},{"type":"Feature","geometry":{"type":"Point","coordinates":[-1.09113,51.27493]},"properties":{"name":"Maple Ridge School","cat":"school","brand":"","cuisine":"","opening_hours":""}},{"type":"Feature","geometry":{"type":"Point","coordinates":[-1.08843,51.27318]},"properties":{"name":"The Vyne Community School","cat":"school","brand":"","cuisine":"","opening_hours":""}},{"type":"Feature","geometry":{"type":"Point","coordinates":[-1.08636,51.27454]},"properties":{"name":"Dove House Academy","cat":"school","brand":"","cuisine":"","opening_hours":""}},{"type":"Feature","geometry":{"type":"Point","coordinates":[-1.11482,51.27429]},"properties":{"name":"Ashwood Education Centre: Ashwood site","cat":"school","brand":"","cuisine":"","opening_hours":""}},{"type":"Feature","geometry":{"type":"Point","coordinates":[-1.11937,51.24906]},"properties":{"name":"Ashwood Education Centre: Broadoaks site","cat":"school","brand":"","cuisine":"","opening_hours":""}},{"type":"Feature","geometry":{"type":"Point","coordinates":[-1.12749,51.26786]},"properties":{"name":"Castle Hill Primary School","cat":"school","brand":"","cuisine":"","opening_hours":""}},{"type":"Feature","geometry":{"type":"Point","coordinates":[-1.12601,51.26796]},"properties":{"name":"Castle Hill Infant School","cat":"school","brand":"","cuisine":"","opening_hours":""}},{"type":"Feature","geometry":{"type":"Point","coordinates":[-1.13314,51.26023]},"properties":{"name":"Chiltern Primary School","cat":"school","brand":"","cuisine":"","opening_hours":""}},{"type":"Feature","geometry":{"type":"Point","coordinates":[-1.0931,51.2306]},"properties":{"name":"Cliddesden Primary School","cat":"school","brand":"","cuisine":"","opening_hours":""}},{"type":"Feature","geometry":{"type":"Point","coordinates":[-1.07743,51.26224]},"properties":{"name":"The Costello School","cat":"school","brand":"","cuisine":"","opening_hours":""}},{"type":"Feature","geometry":{"type":"Point","coordinates":[-1.10018,51.25545]},"properties":{"name":"Cranbourne","cat":"school","brand":"","cuisine":"","opening_hours":""}},{"type":"Feature","geometry":{"type":"Point","coordinates":[-1.08807,51.2596]},"properties":{"name":"Fairfields Primary School","cat":"school","brand":"","cuisine":"","opening_hours":""}},{"type":"Feature","geometry":{"type":"Point","coordinates":[-1.0574,51.29426]},"properties":{"name":"Four Lanes Infant School","cat":"school","brand":"","cuisine":"","opening_hours":""}},{"type":"Feature","geometry":{"type":"Point","coordinates":[-1.0574,51.29377]},"properties":{"name":"Four Lanes Community Junior School","cat":"school","brand":"","cuisine":"","opening_hours":""}},{"type":"Feature","geometry":{"type":"Point","coordinates":[-1.12091,51.24867]},"properties":{"name":"Chiltern Way Academy Basingstoke","cat":"school","brand":"","cuisine":"","opening_hours":""}},{"type":"Feature","geometry":{"type":"Point","coordinates":[-1.12228,51.23883]},"properties":{"name":"Hatch Warren Infant School","cat":"school","brand":"","cuisine":"","opening_hours":""}},{"type":"Feature","geometry":{"type":"Point","coordinates":[-1.12424,51.23886]},"properties":{"name":"Hatch Warren Junior School","cat":"school","brand":"","cuisine":"","opening_hours":""}},{"type":"Feature","geometry":{"type":"Point","coordinates":[-1.13769,51.24457]},"properties":{"name":"Kempshott Junior School","cat":"school","brand":"","cuisine":"","opening_hours":""}},{"type":"Feature","geometry":{"type":"Point","coordinates":[-1.10139,51.25768]},"properties":{"name":"Kings Furlong Junior School","cat":"school","brand":"","cuisine":"","opening_hours":""}},{"type":"Feature","geometry":{"type":"Point","coordinates":[-1.10207,51.25835]},"properties":{"name":"Kings Furlong Infant School and Nursery","cat":"school","brand":"","cuisine":"","opening_hours":""}},{"type":"Feature","geometry":{"type":"Point","coordinates":[-1.11261,51.24043]},"properties":{"name":"Manor Field Junior School","cat":"school","brand":"","cuisine":"","opening_hours":""}},{"type":"Feature","geometry":{"type":"Point","coordinates":[-1.11229,51.24081]},"properties":{"name":"Manor Field Infant School","cat":"school","brand":"","cuisine":"","opening_hours":""}},{"type":"Feature","geometry":{"type":"Point","coordinates":[-1.07861,51.28425]},"properties":{"name":"Marnel Community Infant School","cat":"school","brand":"","cuisine":"","opening_hours":""}},{"type":"Feature","geometry":{"type":"Point","coordinates":[-1.07838,51.28485]},"properties":{"name":"Marnel Junior School","cat":"school","brand":"","cuisine":"","opening_hours":""}},{"type":"Feature","geometry":{"type":"Point","coordinates":[-1.09384,51.28162]},"properties":{"name":"Merton Infant School","cat":"school","brand":"","cuisine":"","opening_hours":""}},{"type":"Feature","geometry":{"type":"Point","coordinates":[-1.09548,51.2814]},"properties":{"name":"Merton Junior School","cat":"school","brand":"","cuisine":"","opening_hours":""}},{"type":"Feature","geometry":{"type":"Point","coordinates":[-1.09503,51.27497]},"properties":{"name":"Oakridge Junior School","cat":"school","brand":"","cuisine":"","opening_hours":""}},{"type":"Feature","geometry":{"type":"Point","coordinates":[-1.09626,51.27538]},"properties":{"name":"Oakridge Infant School","cat":"school","brand":"","cuisine":"","opening_hours":""}},{"type":"Feature","geometry":{"type":"Point","coordinates":[-1.07364,51.25808]},"properties":{"name":"Rucstall Primary School","cat":"school","brand":"","cuisine":"","opening_hours":""}},{"type":"Feature","geometry":{"type":"Point","coordinates":[-1.12713,51.27976]},"properties":{"name":"Saxon Wood School","cat":"school","brand":"","cuisine":"","opening_hours":""}},{"type":"Feature","geometry":{"type":"Point","coordinates":[-1.10688,51.29498]},"properties":{"name":"Sherborne St. John Church of England Primary School","cat":"school","brand":"","cuisine":"","opening_hours":""}},{"type":"Feature","geometry":{"type":"Point","coordinates":[-1.08177,51.27488]},"properties":{"name":"South View Junior School","cat":"school","brand":"","cuisine":"","opening_hours":""}},{"type":"Feature","geometry":{"type":"Point","coordinates":[-1.08134,51.27552]},"properties":{"name":"South View Infant and Nursery School","cat":"school","brand":"","cuisine":"","opening_hours":""}},{"type":"Feature","geometry":{"type":"Point","coordinates":[-1.09,51.28433]},"properties":{"name":"St Bede's Catholic Primary School","cat":"school","brand":"","cuisine":"","opening_hours":""}},{"type":"Feature","geometry":{"type":"Point","coordinates":[-1.09231,51.25543]},"properties":{"name":"St John's Church of England Voluntary Aided Primary School","cat":"school","brand":"","cuisine":"","opening_hours":""}},{"type":"Feature","geometry":{"type":"Point","coordinates":[-1.13021,51.23399]},"properties":{"name":"St Mark's Church of England Primary School","cat":"school","brand":"","cuisine":"","opening_hours":""}},{"type":"Feature","geometry":{"type":"Point","coordinates":[-1.11525,51.27076]},"properties":{"name":"Winklebury Junior School","cat":"school","brand":"","cuisine":"","opening_hours":""}},{"type":"Feature","geometry":{"type":"Point","coordinates":[-1.11589,51.2705]},"properties":{"name":"Winklebury Infant School","cat":"school","brand":"","cuisine":"","opening_hours":""}},{"type":"Feature","geometry":{"type":"Point","coordinates":[-1.08813,51.26301]},"properties":{"name":"Joices Yard","cat":"parking","brand":"","cuisine":"","opening_hours":""}},{"type":"Feature","geometry":{"type":"Point","coordinates":[-1.08967,51.26698]},"properties":{"name":"The Anvil","cat":"theatre","brand":"","cuisine":"","opening_hours":""}},{"type":"Feature","geometry":{"type":"Point","coordinates":[-1.11861,51.26553]},"properties":{"name":"Odeon","cat":"cinema","brand":"Odeon","cuisine":"","opening_hours":""}},{"type":"Feature","geometry":{"type":"Point","coordinates":[-1.11198,51.27978]},"properties":{"name":"The Ark car parking","cat":"parking","brand":"","cuisine":"","opening_hours":""}},{"type":"Feature","geometry":{"type":"Point","coordinates":[-1.09068,51.26618]},"properties":{"name":"Moose Centre","cat":"community_centre","brand":"","cuisine":"","opening_hours":""}},{"type":"Feature","geometry":{"type":"Point","coordinates":[-1.11792,51.25783]},"properties":{"name":"South Ham Library","cat":"library","brand":"","cuisine":"","opening_hours":"Tu-We 09:30-17:00; Fr 09:30-17:00; Sa 09:30-13:00"}},{"type":"Feature","geometry":{"type":"Point","coordinates":[-1.11309,51.24482]},"properties":{"name":"The Church Of Christ The King","cat":"place_of_worship","brand":"","cuisine":"","opening_hours":""}},{"type":"Feature","geometry":{"type":"Point","coordinates":[-1.09231,51.2635]},"properties":{"name":"Basingstoke Mosque","cat":"place_of_worship","brand":"","cuisine":"","opening_hours":""}},{"type":"Feature","geometry":{"type":"Point","coordinates":[-1.11275,51.24491]},"properties":{"name":"The Dome","cat":"community_centre","brand":"","cuisine":"","opening_hours":""}},{"type":"Feature","geometry":{"type":"Point","coordinates":[-1.11703,51.26478]},"properties":{"name":"Spruce Goose","cat":"restaurant","brand":"Beefeater","cuisine":"british","opening_hours":""}},{"type":"Feature","geometry":{"type":"Point","coordinates":[-1.08854,51.25922]},"properties":{"name":"Carnival Hall front car park","cat":"parking","brand":"","cuisine":"","opening_hours":""}},{"type":"Feature","geometry":{"type":"Point","coordinates":[-1.08877,51.25976]},"properties":{"name":"The Irish Centre","cat":"community_centre","brand":"","cuisine":"","opening_hours":""}},{"type":"Feature","geometry":{"type":"Point","coordinates":[-1.13923,51.23533]},"properties":{"name":"Sainsbury's","cat":"supermarket","brand":"Sainsbury's","cuisine":"","opening_hours":"Mo-Sa 07:00-22:00; Su 10:00-16:00"}},{"type":"Feature","geometry":{"type":"Point","coordinates":[-1.09299,51.25954]},"properties":{"name":"Conservative Club","cat":"parking","brand":"","cuisine":"","opening_hours":""}},{"type":"Feature","geometry":{"type":"Point","coordinates":[-1.13488,51.23365]},"properties":{"name":"Hatch Warren Community Centre","cat":"community_centre","brand":"","cuisine":"","opening_hours":""}},{"type":"Feature","geometry":{"type":"Point","coordinates":[-1.11821,51.25525]},"properties":{"name":"Saint Peter's Church","cat":"place_of_worship","brand":"","cuisine":"","opening_hours":""}},{"type":"Feature","geometry":{"type":"Point","coordinates":[-1.1028,51.27544]},"properties":{"name":"Houndmills Service Station","cat":"fuel","brand":"Texaco","cuisine":"","opening_hours":""}},{"type":"Feature","geometry":{"type":"Point","coordinates":[-1.10263,51.27559]},"properties":{"name":"CO-OP Daily","cat":"convenience","brand":"Co-op Daily","cuisine":"","opening_hours":""}},{"type":"Feature","geometry":{"type":"Point","coordinates":[-1.12208,51.25647]},"properties":{"name":"Bishop Challoner Catholic Secondary School","cat":"school","brand":"","cuisine":"","opening_hours":""}},{"type":"Feature","geometry":{"type":"Point","coordinates":[-1.0964,51.26437]},"properties":{"name":"Basingstoke College of Technology","cat":"college","brand":"","cuisine":"","opening_hours":""}},{"type":"Feature","geometry":{"type":"Point","coordinates":[-1.08838,51.26076]},"properties":{"name":"All Saints' Church","cat":"place_of_worship","brand":"","cuisine":"","opening_hours":""}},{"type":"Feature","geometry":{"type":"Point","coordinates":[-1.08892,51.26527]},"properties":{"name":"Saint Michael's","cat":"place_of_worship","brand":"","cuisine":"","opening_hours":""}},{"type":"Feature","geometry":{"type":"Point","coordinates":[-1.09973,51.25032]},"properties":{"name":"Nisa Local","cat":"convenience","brand":"Nisa","cuisine":"","opening_hours":""}},{"type":"Feature","geometry":{"type":"Point","coordinates":[-1.05743,51.2767]},"properties":{"name":"Tesco Express","cat":"supermarket","brand":"Tesco Express","cuisine":"","opening_hours":"07:00-23:00"}},{"type":"Feature","geometry":{"type":"Point","coordinates":[-1.08909,51.26055]},"properties":{"name":"Basingstoke Spiritualist Church","cat":"place_of_worship","brand":"","cuisine":"","opening_hours":""}},{"type":"Feature","geometry":{"type":"Point","coordinates":[-1.09724,51.24813]},"properties":{"name":"Viables Community Centre Main Hall","cat":"community_centre","brand":"","cuisine":"","opening_hours":""}},{"type":"Feature","geometry":{"type":"Point","coordinates":[-1.09733,51.248]},"properties":{"name":"Viables Community Centre Four Lanes Room","cat":"community_centre","brand":"","cuisine":"","opening_hours":""}},{"type":"Feature","geometry":{"type":"Point","coordinates":[-1.05888,51.28854]},"properties":{"name":"Christ Church Chineham","cat":"place_of_worship","brand":"","cuisine":"","opening_hours":""}},{"type":"Feature","geometry":{"type":"Point","coordinates":[-1.06964,51.28717]},"properties":{"name":"Lunch Box","cat":"cafe","brand":"","cuisine":"","opening_hours":""}},{"type":"Feature","geometry":{"type":"Point","coordinates":[-1.05337,51.29195]},"properties":{"name":"Chineham Village Hall","cat":"community_centre","brand":"","cuisine":"","opening_hours":""}},{"type":"Feature","geometry":{"type":"Point","coordinates":[-1.06792,51.28327]},"properties":{"name":"Eat&Thrive Bistro","cat":"fast_food","brand":"","cuisine":"","opening_hours":"Mo-Th 07:30-15:00; Fr 07:30-14:00"}},{"type":"Feature","geometry":{"type":"Point","coordinates":[-1.0333,51.26402]},"properties":{"name":"The Hatch","cat":"pub","brand":"Chef & Brewer","cuisine":"","opening_hours":""}},{"type":"Feature","geometry":{"type":"Point","coordinates":[-1.04269,51.26349]},"properties":{"name":"Oliver's","cat":"restaurant","brand":"","cuisine":"fish_and_chips","opening_hours":""}},{"type":"Feature","geometry":{"type":"Point","coordinates":[-1.04673,51.27159]},"properties":{"name":"St Mary's","cat":"place_of_worship","brand":"","cuisine":"","opening_hours":""}},{"type":"Feature","geometry":{"type":"Point","coordinates":[-1.08547,51.2685]},"properties":{"name":"The Queens Arms","cat":"pub","brand":"","cuisine":"","opening_hours":""}},{"type":"Feature","geometry":{"type":"Point","coordinates":[-1.08976,51.26236]},"properties":{"name":"The Wheatsheaf","cat":"pub","brand":"","cuisine":"","opening_hours":""}},{"type":"Feature","geometry":{"type":"Point","coordinates":[-1.05937,51.28469]},"properties":{"name":"Vemillion","cat":"cafe","brand":"","cuisine":"","opening_hours":"Mo-Fr 08:30-17:00; Sa 09:30-17:00; Su 10:00-16:00"}},{"type":"Feature","geometry":{"type":"Point","coordinates":[-1.0593,51.28469]},"properties":{"name":"Greek Street","cat":"restaurant","brand":"","cuisine":"greek;greek_street","opening_hours":""}},{"type":"Feature","geometry":{"type":"Point","coordinates":[-1.11301,51.27321]},"properties":{"name":"Aldi","cat":"supermarket","brand":"Aldi","cuisine":"","opening_hours":""}},{"type":"Feature","geometry":{"type":"Point","coordinates":[-1.12416,51.2678]},"properties":{"name":"The Good Shepherd, Winklebury","cat":"place_of_worship","brand":"","cuisine":"","opening_hours":""}},{"type":"Feature","geometry":{"type":"Point","coordinates":[-1.09899,51.28575]},"properties":{"name":"Everest Community Academy","cat":"school","brand":"","cuisine":"","opening_hours":""}},{"type":"Feature","geometry":{"type":"Point","coordinates":[-1.11585,51.25331]},"properties":{"name":"The Blue Coat School","cat":"school","brand":"","cuisine":"","opening_hours":""}},{"type":"Feature","geometry":{"type":"Point","coordinates":[-1.13715,51.24518]},"properties":{"name":"Kempshott Infant School","cat":"school","brand":"","cuisine":"","opening_hours":""}},{"type":"Feature","geometry":{"type":"Point","coordinates":[-1.08879,51.25541]},"properties":{"name":"Queen Mary's College","cat":"college","brand":"","cuisine":"","opening_hours":""}},{"type":"Feature","geometry":{"type":"Point","coordinates":[-1.11339,51.25662]},"properties":{"name":"St. Andrews Centre","cat":"parking","brand":"","cuisine":"","opening_hours":""}},{"type":"Feature","geometry":{"type":"Point","coordinates":[-1.07633,51.28732]},"properties":{"name":"Popley Fields Community Centre","cat":"community_centre","brand":"","cuisine":"","opening_hours":""}},{"type":"Feature","geometry":{"type":"Point","coordinates":[-1.13185,51.2613]},"properties":{"name":"Buckskin Evangelical Church","cat":"place_of_worship","brand":"","cuisine":"","opening_hours":""}},{"type":"Feature","geometry":{"type":"Point","coordinates":[-1.11594,51.2821]},"properties":{"name":"Rooksdown Comminuty Centre","cat":"community_centre","brand":"","cuisine":"","opening_hours":""}},{"type":"Feature","geometry":{"type":"Point","coordinates":[-1.09195,51.26935]},"properties":{"name":"The Rising Sun","cat":"pub","brand":"","cuisine":"","opening_hours":""}},{"type":"Feature","geometry":{"type":"Point","coordinates":[-1.07114,51.26633]},"properties":{"name":"The Roger Morris Centre","cat":"community_centre","brand":"","cuisine":"","opening_hours":"Mo-Su 08:00-23:30"}},{"type":"Feature","geometry":{"type":"Point","coordinates":[-1.08143,51.28571]},"properties":{"name":"Bemuda Hall","cat":"community_centre","brand":"","cuisine":"","opening_hours":""}},{"type":"Feature","geometry":{"type":"Point","coordinates":[-1.08353,51.28704]},"properties":{"name":"Youngs","cat":"fast_food","brand":"","cuisine":"chinese;fish_and_chips","opening_hours":""}},{"type":"Feature","geometry":{"type":"Point","coordinates":[-1.08198,51.26519]},"properties":{"name":"St Mary's Church","cat":"place_of_worship","brand":"","cuisine":"","opening_hours":""}},{"type":"Feature","geometry":{"type":"Point","coordinates":[-1.07633,51.26781]},"properties":{"name":"Lower Basing View Public Car Park","cat":"parking","brand":"","cuisine":"","opening_hours":""}},{"type":"Feature","geometry":{"type":"Point","coordinates":[-1.07455,51.2812]},"properties":{"name":"Overflow Parking","cat":"parking","brand":"","cuisine":"","opening_hours":""}},{"type":"Feature","geometry":{"type":"Point","coordinates":[-1.14045,51.23092]},"properties":{"name":"Beggarwood Ampitheatre","cat":"theatre","brand":"","cuisine":"","opening_hours":""}},{"type":"Feature","geometry":{"type":"Point","coordinates":[-1.06095,51.28317]},"properties":{"name":"Tesco Fuel Chineham","cat":"fuel","brand":"Tesco","cuisine":"","opening_hours":""}},{"type":"Feature","geometry":{"type":"Point","coordinates":[-1.08708,51.26306]},"properties":{"name":"The Haymarket","cat":"theatre","brand":"","cuisine":"","opening_hours":""}},{"type":"Feature","geometry":{"type":"Point","coordinates":[-1.07336,51.26396]},"properties":{"name":"The Rivermead","cat":"pub","brand":"","cuisine":"","opening_hours":""}},{"type":"Feature","geometry":{"type":"Point","coordinates":[-1.1414,51.23021]},"properties":{"name":"Beggarwood Community Centre","cat":"community_centre","brand":"","cuisine":"","opening_hours":""}},{"type":"Feature","geometry":{"type":"Point","coordinates":[-1.06379,51.2731]},"properties":{"name":"Lunchbox","cat":"cafe","brand":"","cuisine":"","opening_hours":""}},{"type":"Feature","geometry":{"type":"Point","coordinates":[-1.0807,51.27765]},"properties":{"name":"The Oak","cat":"pub","brand":"","cuisine":"","opening_hours":""}},{"type":"Feature","geometry":{"type":"Point","coordinates":[-1.10637,51.278]},"properties":{"name":"The Corner Lounge Cafe","cat":"cafe","brand":"","cuisine":"","opening_hours":""}},{"type":"Feature","geometry":{"type":"Point","coordinates":[-1.06483,51.22855]},"properties":{"name":"St Mary's, Winslade","cat":"place_of_worship","brand":"","cuisine":"","opening_hours":""}},{"type":"Feature","geometry":{"type":"Point","coordinates":[-1.09466,51.27549]},"properties":{"name":"Oakridge West Community Centre","cat":"community_centre","brand":"","cuisine":"","opening_hours":""}},{"type":"Feature","geometry":{"type":"Point","coordinates":[-1.03688,51.23122]},"properties":{"name":"All Saints Church","cat":"place_of_worship","brand":"","cuisine":"","opening_hours":""}},{"type":"Feature","geometry":{"type":"Point","coordinates":[-1.10777,51.25211]},"properties":{"name":"Nando's","cat":"restaurant","brand":"Nando's","cuisine":"chicken;portuguese","opening_hours":""}},{"type":"Feature","geometry":{"type":"Point","coordinates":[-1.09459,51.23735]},"properties":{"name":"Saint Leonard's Church","cat":"place_of_worship","brand":"","cuisine":"","opening_hours":""}},{"type":"Feature","geometry":{"type":"Point","coordinates":[-1.10612,51.22351]},"properties":{"name":"St Andrew's Church","cat":"place_of_worship","brand":"","cuisine":"","opening_hours":""}},{"type":"Feature","geometry":{"type":"Point","coordinates":[-1.10861,51.28035]},"properties":{"name":"Ambulance Bay","cat":"parking","brand":"","cuisine":"","opening_hours":""}},{"type":"Feature","geometry":{"type":"Point","coordinates":[-1.11091,51.28098]},"properties":{"name":"Basingstoke and North Hampshire Hospital","cat":"hospital","brand":"","cuisine":"","opening_hours":""}},{"type":"Feature","geometry":{"type":"Point","coordinates":[-1.07197,51.28493]},"properties":{"name":"Dragonfly","cat":"pub","brand":"","cuisine":"","opening_hours":""}},{"type":"Feature","geometry":{"type":"Point","coordinates":[-1.09137,51.26266]},"properties":{"name":"Trinity Methodist Church","cat":"place_of_worship","brand":"","cuisine":"","opening_hours":""}},{"type":"Feature","geometry":{"type":"Point","coordinates":[-1.08813,51.26585]},"properties":{"name":"Superdrug","cat":"pharmacy","brand":"Superdrug","cuisine":"","opening_hours":"Mo-Fr 08:30-19:00; Sa 08:30-18:00; Su 11:00-17:00"}},{"type":"Feature","geometry":{"type":"Point","coordinates":[-1.08785,51.26557]},"properties":{"name":"Pret A Manger","cat":"fast_food","brand":"Pret A Manger","cuisine":"sandwich","opening_hours":""}},{"type":"Feature","geometry":{"type":"Point","coordinates":[-1.08771,51.264]},"properties":{"name":"Basingstoke Discovery Centre","cat":"library","brand":"","cuisine":"","opening_hours":"Mo, We-Sa 09:30-17:00; Tu 09:30-13:30"}},{"type":"Feature","geometry":{"type":"Point","coordinates":[-1.08751,51.26623]},"properties":{"name":"Metro Bank","cat":"bank","brand":"Metro Bank","cuisine":"","opening_hours":"Mo-Fr 09:30-17:00; PH closed; Sa-Su closed"}},{"type":"Feature","geometry":{"type":"Point","coordinates":[-1.0885,51.26243]},"properties":{"name":"The Meldiz Turkish Restaurant","cat":"restaurant","brand":"","cuisine":"turkish","opening_hours":""}},{"type":"Feature","geometry":{"type":"Point","coordinates":[-1.08817,51.26246]},"properties":{"name":"Tang","cat":"restaurant","brand":"","cuisine":"chinese","opening_hours":"Mo-Sa 12:00-14:30, 17:30-23:00; Su 12:00-16:00, 18:00-23:00"}},{"type":"Feature","geometry":{"type":"Point","coordinates":[-1.0885,51.26308]},"properties":{"name":"Oriental Wok","cat":"restaurant","brand":"","cuisine":"chinese","opening_hours":""}},{"type":"Feature","geometry":{"type":"Point","coordinates":[-1.08243,51.26503]},"properties":{"name":"St Mary's Church Centre","cat":"community_centre","brand":"","cuisine":"","opening_hours":""}},{"type":"Feature","geometry":{"type":"Point","coordinates":[-1.08213,51.26243]},"properties":{"name":"White Hart","cat":"pub","brand":"","cuisine":"","opening_hours":""}},{"type":"Feature","geometry":{"type":"Point","coordinates":[-1.08673,51.25077]},"properties":{"name":"M&S Simply Food","cat":"convenience","brand":"Marks & Spencer","cuisine":"","opening_hours":"Mo-Su 06:30-22:00"}},{"type":"Feature","geometry":{"type":"Point","coordinates":[-1.10593,51.26379]},"properties":{"name":"Morrisons Petrol Station","cat":"fuel","brand":"Morrisons","cuisine":"","opening_hours":"Mo-Su 06:00-23:00"}},{"type":"Feature","geometry":{"type":"Point","coordinates":[-1.13902,51.23389]},"properties":{"name":"Sainsbury's","cat":"fuel","brand":"Sainsbury's","cuisine":"","opening_hours":""}},{"type":"Feature","geometry":{"type":"Point","coordinates":[-1.1139,51.25019]},"properties":{"name":"Shell","cat":"convenience","brand":"Shell","cuisine":"","opening_hours":""}},{"type":"Feature","geometry":{"type":"Point","coordinates":[-1.08497,51.26295]},"properties":{"name":"Anchor Yard Car Park","cat":"parking","brand":"","cuisine":"","opening_hours":""}},{"type":"Feature","geometry":{"type":"Point","coordinates":[-1.11271,51.24522]},"properties":{"name":"West Basingstoke Baptist Church","cat":"place_of_worship","brand":"","cuisine":"","opening_hours":""}},{"type":"Feature","geometry":{"type":"Point","coordinates":[-1.12659,51.25407]},"properties":{"name":"Park View Primary School","cat":"school","brand":"","cuisine":"","opening_hours":""}},{"type":"Feature","geometry":{"type":"Point","coordinates":[-1.13193,51.26228]},"properties":{"name":"Royal Oak","cat":"pub","brand":"","cuisine":"","opening_hours":""}},{"type":"Feature","geometry":{"type":"Point","coordinates":[-1.13333,51.26204]},"properties":{"name":"The White Hart Inn","cat":"pub","brand":"","cuisine":"","opening_hours":""}},{"type":"Feature","geometry":{"type":"Point","coordinates":[-1.09307,51.26371]},"properties":{"name":"The New Inn","cat":"pub","brand":"","cuisine":"","opening_hours":""}},{"type":"Feature","geometry":{"type":"Point","coordinates":[-1.1134,51.25625]},"properties":{"name":"St Andrew's Methodist Church","cat":"place_of_worship","brand":"","cuisine":"","opening_hours":""}},{"type":"Feature","geometry":{"type":"Point","coordinates":[-1.11261,51.25051]},"properties":{"name":"PizzaExpress","cat":"restaurant","brand":"PizzaExpress","cuisine":"pizza","opening_hours":""}},{"type":"Feature","geometry":{"type":"Point","coordinates":[-1.12883,51.29811]},"properties":{"name":"All Saint's Church","cat":"place_of_worship","brand":"","cuisine":"","opening_hours":""}},{"type":"Feature","geometry":{"type":"Point","coordinates":[-1.10704,51.29582]},"properties":{"name":"Saint Andrew's","cat":"place_of_worship","brand":"","cuisine":"","opening_hours":""}},{"type":"Feature","geometry":{"type":"Point","coordinates":[-1.08857,51.25009]},"properties":{"name":"The Golden Lion","cat":"pub","brand":"","cuisine":"","opening_hours":""}},{"type":"Feature","geometry":{"type":"Point","coordinates":[-1.15258,51.27505]},"properties":{"name":"St. Lawrence","cat":"place_of_worship","brand":"","cuisine":"","opening_hours":""}},{"type":"Feature","geometry":{"type":"Point","coordinates":[-1.1405,51.26217]},"properties":{"name":"Saint Thomas Of Canterbury","cat":"place_of_worship","brand":"","cuisine":"","opening_hours":""}},{"type":"Feature","geometry":{"type":"Point","coordinates":[-1.13326,51.24405]},"properties":{"name":"Saint Mark's Church","cat":"place_of_worship","brand":"","cuisine":"","opening_hours":""}},{"type":"Feature","geometry":{"type":"Point","coordinates":[-1.10601,51.29358]},"properties":{"name":"The Swan","cat":"pub","brand":"Chef & Brewer","cuisine":"","opening_hours":""}},{"type":"Feature","geometry":{"type":"Point","coordinates":[-1.11436,51.2496]},"properties":{"name":"Stag And Hounds","cat":"restaurant","brand":"Harvester","cuisine":"american","opening_hours":""}},{"type":"Feature","geometry":{"type":"Point","coordinates":[-1.11718,51.28247]},"properties":{"name":"Rooksdown Pharmacy","cat":"pharmacy","brand":"","cuisine":"","opening_hours":"Mo-Fr 09:00-12:00,13:00-18:00; Sa 08:00-12:00"}},{"type":"Feature","geometry":{"type":"Point","coordinates":[-1.09041,51.28033]},"properties":{"name":"The Popinjay","cat":"pub","brand":"","cuisine":"","opening_hours":""}},{"type":"Feature","geometry":{"type":"Point","coordinates":[-1.08216,51.26826]},"properties":{"name":"Waitrose","cat":"supermarket","brand":"Waitrose","cuisine":"","opening_hours":"Mo-Sa 07:30-20:00; Su 10:00-16:00"}},{"type":"Feature","geometry":{"type":"Point","coordinates":[-1.10692,51.25122]},"properties":{"name":"The Food Warehouse","cat":"supermarket","brand":"The Food Warehouse","cuisine":"","opening_hours":""}},{"type":"Feature","geometry":{"type":"Point","coordinates":[-1.084,51.26569]},"properties":{"name":"The Angel","cat":"pub","brand":"Wetherspoon","cuisine":"","opening_hours":""}},{"type":"Feature","geometry":{"type":"Point","coordinates":[-1.08424,51.26564]},"properties":{"name":"ASK Italian","cat":"restaurant","brand":"ASK Italian","cuisine":"italian","opening_hours":""}},{"type":"Feature","geometry":{"type":"Point","coordinates":[-1.08468,51.26556]},"properties":{"name":"Cosy Club","cat":"restaurant","brand":"Cosy Club","cuisine":"british","opening_hours":""}},{"type":"Feature","geometry":{"type":"Point","coordinates":[-1.08406,51.26531]},"properties":{"name":"Vue","cat":"cinema","brand":"Vue","cuisine":"","opening_hours":""}},{"type":"Feature","geometry":{"type":"Point","coordinates":[-1.08696,51.26951]},"properties":{"name":"Station Car Wash","cat":"car_wash","brand":"","cuisine":"","opening_hours":""}},{"type":"Feature","geometry":{"type":"Point","coordinates":[-1.08645,51.26232]},"properties":{"name":"NatWest","cat":"bank","brand":"NatWest","cuisine":"","opening_hours":""}},{"type":"Feature","geometry":{"type":"Point","coordinates":[-1.08662,51.2622]},"properties":{"name":"Zizzi","cat":"restaurant","brand":"Zizzi","cuisine":"italian","opening_hours":"Mo-Th 11:30-22:00; Fr-Sa 11:30-23:00; Su 11:30-22:00"}},{"type":"Feature","geometry":{"type":"Point","coordinates":[-1.08026,51.26157]},"properties":{"name":"The Costello School (Sports Hall Area)","cat":"school","brand":"","cuisine":"","opening_hours":""}},{"type":"Feature","geometry":{"type":"Point","coordinates":[-1.08346,51.26434]},"properties":{"name":"Glenholme Dental Centre","cat":"dentist","brand":"","cuisine":"","opening_hours":"Mo-Fr 08:00-17:00"}},{"type":"Feature","geometry":{"type":"Point","coordinates":[-1.08782,51.26467]},"properties":{"name":"HSBC UK","cat":"bank","brand":"HSBC UK","cuisine":"","opening_hours":""}},{"type":"Feature","geometry":{"type":"Point","coordinates":[-1.08666,51.26427]},"properties":{"name":"Burger King","cat":"fast_food","brand":"Burger King","cuisine":"burger","opening_hours":"Mo-Th 10:00-22:00; Fr,Sa 10:00-23:00; Su 10:30-22:00"}},{"type":"Feature","geometry":{"type":"Point","coordinates":[-1.08676,51.25092]},"properties":{"name":"BP","cat":"fuel","brand":"BP","cuisine":"","opening_hours":""}},{"type":"Feature","geometry":{"type":"Point","coordinates":[-1.12747,51.24613]},"properties":{"name":"Miller & Carter","cat":"restaurant","brand":"Miller & Carter","cuisine":"steak","opening_hours":"Mo-Su 12:00-23:00"}},{"type":"Feature","geometry":{"type":"Point","coordinates":[-1.0888,51.25993]},"properties":{"name":"Irish Centre Parking","cat":"parking","brand":"","cuisine":"","opening_hours":""}},{"type":"Feature","geometry":{"type":"Point","coordinates":[-1.08855,51.26155]},"properties":{"name":"Premier Inn Parking","cat":"parking","brand":"","cuisine":"","opening_hours":""}},{"type":"Feature","geometry":{"type":"Point","coordinates":[-1.09962,51.24957]},"properties":{"name":"Brunswick Place Veterinary Clinic","cat":"veterinary","brand":"","cuisine":"","opening_hours":""}},{"type":"Feature","geometry":{"type":"Point","coordinates":[-1.13814,51.24628]},"properties":{"name":"The Kestrel","cat":"pub","brand":"","cuisine":"","opening_hours":""}},{"type":"Feature","geometry":{"type":"Point","coordinates":[-1.11731,51.2347]},"properties":{"name":"Portsmouth Arms","cat":"pub","brand":"Hall & Woodhouse","cuisine":"","opening_hours":"Mo-Fr 11:30-23:00; Sa 11:00-23:00; Su 11:30-22:00"}},{"type":"Feature","geometry":{"type":"Point","coordinates":[-1.11564,51.26411]},"properties":{"name":"Valero","cat":"fuel","brand":"Valero","cuisine":"","opening_hours":""}},{"type":"Feature","geometry":{"type":"Point","coordinates":[-1.07192,51.25844]},"properties":{"name":"Rucstall Community Centre","cat":"community_centre","brand":"","cuisine":"","opening_hours":""}},{"type":"Feature","geometry":{"type":"Point","coordinates":[-1.09535,51.27305]},"properties":{"name":"Sherborne Road Stores","cat":"convenience","brand":"","cuisine":"","opening_hours":""}}]}