{"type":"FeatureCollection","features":[{"type":"Feature","geometry":{"type":"Point","coordinates":[-0.84298,51.4119]},"properties":{"name":"Wokingham","operator":"South Western Railway","public_transport":"station","railway":"station"}},{"type":"Feature","geometry":{"type":"Point","coordinates":[-1.1367,51.40221]},"properties":{"name":"Aldermaston","operator":"Great Western Railway","public_transport":"station","railway":"station"}},{"type":"Feature","geometry":{"type":"Point","coordinates":[-1.17829,51.39607]},"properties":{"name":"Midgham","operator":"Great Western Railway","public_transport":"station","railway":"station"}},{"type":"Feature","geometry":{"type":"Point","coordinates":[-1.30697,51.39865]},"properties":{"name":"Newbury Racecourse","operator":"Great Western Railway","public_transport":"station","railway":"station"}},{"type":"Feature","geometry":{"type":"Point","coordinates":[-1.26039,51.18251]},"properties":{"name":"Micheldever","operator":"South Western Railway","public_transport":"station","railway":"station"}},{"type":"Feature","geometry":{"type":"Point","coordinates":[-1.25998,51.25414]},"properties":{"name":"Overton","operator":"South Western Railway","public_transport":"station","railway":"station"}},{"type":"Feature","geometry":{"type":"Point","coordinates":[-1.08856,51.26842]},"properties":{"name":"Basingstoke","operator":"South Western Railway","public_transport":"station","railway":"station"}},{"type":"Feature","geometry":{"type":"Point","coordinates":[-1.33874,51.23765]},"properties":{"name":"Whitchurch","operator":"South Western Railway","public_transport":"station","railway":"station"}},{"type":"Feature","geometry":{"type":"Point","coordinates":[-0.81926,51.36649]},"properties":{"name":"Crowthorne","operator":"Great Western Railway","public_transport":"station","railway":"station"}},{"type":"Feature","geometry":{"type":"Point","coordinates":[-0.80381,51.34654]},"properties":{"name":"Sandhurst","operator":"Great Western Railway","public_transport":"station","railway":"station"}},{"type":"Feature","geometry":{"type":"Point","coordinates":[-0.8682,51.18123]},"properties":{"name":"Bentley","operator":"South Western Railway","public_transport":"station","railway":"station"}},{"type":"Feature","geometry":{"type":"Point","coordinates":[-1.32275,51.39753]},"properties":{"name":"Newbury","operator":"Great Western Railway","public_transport":"station","railway":"station"}},{"type":"Feature","geometry":{"type":"Point","coordinates":[-1.02182,51.41919]},"properties":{"name":"Amnerfield Miniature Railway","railway":"station"}},{"type":"Feature","geometry":{"type":"Point","coordinates":[-0.96142,51.27988]},"properties":{"name":"Hook","operator":"South Western Railway","public_transport":"station","railway":"station"}},{"type":"Feature","geometry":{"type":"Point","coordinates":[-0.90702,51.28473]},"properties":{"name":"Winchfield","operator":"South Western Railway","railway":"station"}},{"type":"Feature","geometry":{"type":"Point","coordinates":[-0.83138,51.29062]},"properties":{"name":"Fleet","operator":"South Western Railway","public_transport":"station","railway":"station"}},{"type":"Feature","geometry":{"type":"Point","coordinates":[-1.24274,51.39386]},"properties":{"name":"Thatcham","operator":"Great Western Railway","public_transport":"station","railway":"station"}},{"type":"Feature","geometry":{"type":"Point","coordinates":[-1.03564,51.37206]},"properties":{"name":"Mortimer","operator":"Great Western Railway","public_transport":"station","railway":"station"}},{"type":"Feature","geometry":{"type":"Point","coordinates":[-1.06084,51.32998]},"properties":{"name":"Bramley","operator":"Great Western Railway","public_transport":"station","railway":"station"}},{"type":"Feature","geometry":{"type":"Point","coordinates":[-0.95184,51.35845]},"properties":{"public_transport":"station","railway":"station"}}]}